{
"type": "FeatureCollection",
"name": "niveaumaalere",
"crs": { "type": "name", "properties": { "name": "urn:ogc:def:crs:EPSG::25832" } },
"features": [
{ "type": "Feature", "properties": { "MUID": "1000028121", "Enabled": 1.0, "GeomX": 717096.38, "GeomY": 6179676.64, "TypeNo": 1.0, "Diameter": 1.26, "GroundLeve": 11.61, "InvertLeve": 8.8, "GeometryID": null, "BranchID": null, "BranchChai": null, "CoverTypeN": 1.0, "BufferPres": 0.0, "SpillCoef": 1.0, "InletContr": 0.0, "MaxInlet": null, "QHTypeNo": 0.0, "OutletQHID": "1", "LossParID": "Weighted Inlet Energy", "LossParNo": 0.0, "LossTypeNo": 1.0, "LossCoeffK": 0.25, "LossCoeffC": null, "LossCoeffT": null, "EffAreaNo": 1.0, "PMTypeNo": 0.0, "PMLevel": null, "Infiltrati": 2.0, "InitialWL": 0.0, "InfConstVa": 0.0, "KfsSide": 0.0, "PorosityFi": 1.0, "KfsBottomN": 0.0, "KfsBottom": 0.0, "DataSource": "DANDAS", "AssetName": null, "SubModelNo": 2.0, "CriticalLe": null, "Element_S": 10.0, "NetTypeNo": 3.0, "Descriptio": null }, "geometry": { "type": "Point", "coordinates": [ 717096.38, 6179676.639999999664724 ] } },
{ "type": "Feature", "properties": { "MUID": "1100011", "Enabled": 1.0, "GeomX": 716827.14, "GeomY": 6181273.83, "TypeNo": 1.0, "Diameter": 2.3, "GroundLeve": 16.62, "InvertLeve": 14.42, "GeometryID": null, "BranchID": null, "BranchChai": null, "CoverTypeN": 1.0, "BufferPres": 0.0, "SpillCoef": 1.0, "InletContr": 0.0, "MaxInlet": null, "QHTypeNo": 0.0, "OutletQHID": "1", "LossParID": "Weighted Inlet Energy", "LossParNo": 0.0, "LossTypeNo": 1.0, "LossCoeffK": 0.25, "LossCoeffC": null, "LossCoeffT": null, "EffAreaNo": 1.0, "PMTypeNo": 0.0, "PMLevel": null, "Infiltrati": 2.0, "InitialWL": 0.0, "InfConstVa": 0.0, "KfsSide": 0.0, "PorosityFi": 1.0, "KfsBottomN": 0.0, "KfsBottom": 0.0, "DataSource": "3: Tegning", "AssetName": null, "SubModelNo": 2.0, "CriticalLe": null, "Element_S": 10.0, "NetTypeNo": 3.0, "Descriptio": null }, "geometry": { "type": "Point", "coordinates": [ 716827.14000000001397, 6181273.83 ] } },
{ "type": "Feature", "properties": { "MUID": "1100035", "Enabled": 1.0, "GeomX": 716491.58, "GeomY": 6182063.02, "TypeNo": 1.0, "Diameter": 2.0, "GroundLeve": 23.14, "InvertLeve": 21.02, "GeometryID": null, "BranchID": null, "BranchChai": null, "CoverTypeN": 1.0, "BufferPres": 0.0, "SpillCoef": 1.0, "InletContr": 0.0, "MaxInlet": null, "QHTypeNo": 0.0, "OutletQHID": "1", "LossParID": "Weighted Inlet Energy", "LossParNo": 0.0, "LossTypeNo": 1.0, "LossCoeffK": 0.25, "LossCoeffC": null, "LossCoeffT": null, "EffAreaNo": 1.0, "PMTypeNo": 0.0, "PMLevel": null, "Infiltrati": 2.0, "InitialWL": 0.0, "InfConstVa": 0.0, "KfsSide": 0.0, "PorosityFi": 1.0, "KfsBottomN": 0.0, "KfsBottom": 0.0, "DataSource": "3: Tegning", "AssetName": null, "SubModelNo": 2.0, "CriticalLe": null, "Element_S": 10.0, "NetTypeNo": 3.0, "Descriptio": null }, "geometry": { "type": "Point", "coordinates": [ 716491.57999999995809, 6182063.019999999552965 ] } },
{ "type": "Feature", "properties": { "MUID": "1105001", "Enabled": 1.0, "GeomX": 716983.39, "GeomY": 6180465.19, "TypeNo": 1.0, "Diameter": 1.25, "GroundLeve": 12.35, "InvertLeve": 10.37, "GeometryID": null, "BranchID": null, "BranchChai": null, "CoverTypeN": 1.0, "BufferPres": 0.0, "SpillCoef": 1.0, "InletContr": 0.0, "MaxInlet": null, "QHTypeNo": 0.0, "OutletQHID": "1", "LossParID": "Weighted Inlet Energy", "LossParNo": 0.0, "LossTypeNo": 1.0, "LossCoeffK": 0.25, "LossCoeffC": null, "LossCoeffT": null, "EffAreaNo": 1.0, "PMTypeNo": 0.0, "PMLevel": null, "Infiltrati": 2.0, "InitialWL": 0.0, "InfConstVa": 0.0, "KfsSide": 0.0, "PorosityFi": 1.0, "KfsBottomN": 0.0, "KfsBottom": 0.0, "DataSource": "DANDAS", "AssetName": null, "SubModelNo": null, "CriticalLe": null, "Element_S": 10.0, "NetTypeNo": 3.0, "Descriptio": null }, "geometry": { "type": "Point", "coordinates": [ 716983.39000000001397, 6180465.190000000409782 ] } }
]
}
