{
"type": "FeatureCollection",
"name": "overloeb",
"crs": { "type": "name", "properties": { "name": "urn:ogc:def:crs:EPSG::25832" } },
"features": [
{ "type": "Feature", "properties": { "KNUDENAVN": "1000020", "KNUDETYPE": "Overløb", "INTERPOLER": null, "BUNDKOTE": "9.48", "OPLANDSNAV": "HER_KAGSÅ", "EJERNAVN": "HOFOR Spildevand Herlev A/S", "DRIFTANSVA": "HOFOR A/S", "STATUS": "I brug/drift", "KATEGORIAF": "Hovedledning", "TYPEAFLOEB": "Fælles", "TILLADTILS": "Ejeren skal høres (forsyningen)", "BEMAERKNIN": "OPRETTET 01/11/90 FRA TV RAPPORT NR.:  22118930\n(auto) Vejnavn : KLOKKEDYBET", "DATOETABLE": "1938-01-01", "DATOHISTOR": null, "STATUSDATO": "1938-01-01", "LOKALITETS": null, "OPRIND_BUN": "Digitaliseret fra kort ;  ;  ; j.nr.:9030", "BEMAERKGEO": "firk2200x3400", "TIDLKNUDEN": null, "XKOORDINAT": "717138.85", "YKOORDINAT": "6180114.01", "OPRIND_KOO": "Andet ; 14-JUN-06 ; Ukendt ; j.nr.:DAS5-20060614-50-0", "ID": "1138418" }, "geometry": { "type": "Point", "coordinates": [ 717138.849999999976717, 6180114.009999999776483 ] } },
{ "type": "Feature", "properties": { "KNUDENAVN": "1000025", "KNUDETYPE": "Overløb", "INTERPOLER": null, "BUNDKOTE": "10.34", "OPLANDSNAV": "382", "EJERNAVN": "HOFOR Spildevand Herlev A/S", "DRIFTANSVA": "HOFOR A/S", "STATUS": "I brug/drift", "KATEGORIAF": "Hovedledning", "TYPEAFLOEB": "Fælles", "TILLADTILS": "Ejeren skal høres (forsyningen)", "BEMAERKNIN": "ved motorringvejen\n(auto) Vejnavn : KLINTEKONGEVEJ", "DATOETABLE": "1938-01-01", "DATOHISTOR": null, "STATUSDATO": "1938-01-01", "LOKALITETS": null, "OPRIND_BUN": "Landmåling ; 18-MAR-11 ; Ukendt ; j.nr.:DAS5-20110318-5-0", "BEMAERKGEO": "OV05, Klintekongevej", "TIDLKNUDEN": null, "XKOORDINAT": "716994.35", "YKOORDINAT": "6180457.16", "OPRIND_KOO": "Andet ; 14-JUN-06 ; Ukendt ; j.nr.:DAS5-20060614-50-0", "ID": "1138423" }, "geometry": { "type": "Point", "coordinates": [ 716994.347137004020624, 6180457.158111359924078 ] } },
{ "type": "Feature", "properties": { "KNUDENAVN": "1000028242", "KNUDETYPE": "Overløb", "INTERPOLER": null, "BUNDKOTE": "8.8", "OPLANDSNAV": "382", "EJERNAVN": "Fælles kommunalt anlæg med driftsfordeling", "DRIFTANSVA": "HOFOR A/S", "STATUS": "I brug/drift", "KATEGORIAF": "Hovedledning", "TYPEAFLOEB": "Fælles", "TILLADTILS": "Ejeren skal høres (betinget af udløbstilladelse)", "BEMAERKNIN": "KS 021-2022, KS 315-2014", "DATOETABLE": "2012-05-26", "DATOHISTOR": null, "STATUSDATO": "2012-05-26", "LOKALITETS": null, "OPRIND_BUN": "Landmåling ;  ; Afløbs planlægningsafdeling tegningssektion ; j.nr.:9021", "BEMAERKGEO": null, "TIDLKNUDEN": null, "XKOORDINAT": "717096.02", "YKOORDINAT": "6179678.01", "OPRIND_KOO": "Skønnet ;  ;  ; j.nr.:9031", "ID": "1212737" }, "geometry": { "type": "Point", "coordinates": [ 717096.01929114095401, 6179678.006324109621346 ] } },
{ "type": "Feature", "properties": { "KNUDENAVN": "1000028678", "KNUDETYPE": "Overløb", "INTERPOLER": null, "BUNDKOTE": "7.5", "OPLANDSNAV": "382", "EJERNAVN": "Fælles kommunalt anlæg med driftsfordeling", "DRIFTANSVA": "HOFOR A/S", "STATUS": "I brug/drift", "KATEGORIAF": "Hovedledning", "TYPEAFLOEB": "Fælles", "TILLADTILS": "Ingen høring", "BEMAERKNIN": "KS 315-2014", "DATOETABLE": null, "DATOHISTOR": null, "STATUSDATO": null, "LOKALITETS": null, "OPRIND_BUN": "Landmåling ;  ; Afløbs planlægningsafdeling tegningssektion ; j.nr.:9021", "BEMAERKGEO": null, "TIDLKNUDEN": null, "XKOORDINAT": "717102.15", "YKOORDINAT": "6179693.91", "OPRIND_KOO": null, "ID": "1213223" }, "geometry": { "type": "Point", "coordinates": [ 717102.151955657056533, 6179693.909331420436502 ] } },
{ "type": "Feature", "properties": { "KNUDENAVN": "1000030", "KNUDETYPE": "Overløb", "INTERPOLER": null, "BUNDKOTE": "11.69", "OPLANDSNAV": "382", "EJERNAVN": "HOFOR Spildevand Herlev A/S", "DRIFTANSVA": "HOFOR A/S", "STATUS": "I brug/drift", "KATEGORIAF": "Hovedledning", "TYPEAFLOEB": "Fælles", "TILLADTILS": "Ejeren skal høres (forsyningen)", "BEMAERKNIN": "OPRETTET 01/11/90 FRA TV RAPPORT NR.:  20118918\n(auto) Vejnavn : HAVMANDSVEJ", "DATOETABLE": "1938-01-01", "DATOHISTOR": null, "STATUSDATO": "1938-01-01", "LOKALITETS": null, "OPRIND_BUN": "Landmåling ; 18-MAR-11 ; Ukendt ; j.nr.:DAS5-20110318-5-0", "BEMAERKGEO": "OV06, Havmandsvej", "TIDLKNUDEN": null, "XKOORDINAT": "716860.72", "YKOORDINAT": "6180723.96", "OPRIND_KOO": "Uoplyst ; 14-JUN-06 ; Ukendt ; j.nr.:DAS5-20060614-0-0", "ID": "1137845" }, "geometry": { "type": "Point", "coordinates": [ 716860.716685354011133, 6180723.964528899639845 ] } },
{ "type": "Feature", "properties": { "KNUDENAVN": "1000034", "KNUDETYPE": "Overløb", "INTERPOLER": null, "BUNDKOTE": "12.43", "OPLANDSNAV": "382", "EJERNAVN": "HOFOR Spildevand Herlev A/S", "DRIFTANSVA": "HOFOR A/S", "STATUS": "I brug/drift", "KATEGORIAF": "Hovedledning", "TYPEAFLOEB": "Fælles", "TILLADTILS": "Ejeren skal høres (forsyningen)", "BEMAERKNIN": "OV07, Ederlandsvej, OPRETTET 01/11/90 FRA TV RAPPORT NR.:  22118917\n(auto) Vejnavn : EDERLANDSVEJ", "DATOETABLE": "1938-01-01", "DATOHISTOR": null, "STATUSDATO": "1938-01-01", "LOKALITETS": null, "OPRIND_BUN": "Landmåling ; 18-MAR-11 ; Ukendt ; j.nr.:DAS5-20110318-5-0", "BEMAERKGEO": "firk2200x3100B", "TIDLKNUDEN": null, "XKOORDINAT": "716864.88", "YKOORDINAT": "6180929.44", "OPRIND_KOO": "Uoplyst ; 14-JUN-06 ; Ukendt ; j.nr.:DAS5-20060614-0-0", "ID": "1137849" }, "geometry": { "type": "Point", "coordinates": [ 716864.883119100006297, 6180929.444161829538643 ] } },
{ "type": "Feature", "properties": { "KNUDENAVN": "1000046", "KNUDETYPE": "Overløb", "INTERPOLER": null, "BUNDKOTE": "13.95", "OPLANDSNAV": "HER_KAGSÅ", "EJERNAVN": "HOFOR Spildevand Herlev A/S", "DRIFTANSVA": "HOFOR A/S", "STATUS": "I brug/drift", "KATEGORIAF": "Hovedledning", "TYPEAFLOEB": "Fælles", "TILLADTILS": "Ejeren skal høres (forsyningen)", "BEMAERKNIN": "OV15D, Boldbanen, OPRETTET 12/03/91 FRA TV RAPPORT NR.:  13029102-4027\n(auto) Vejnavn : EDERLANDSVEJ", "DATOETABLE": "1949-01-01", "DATOHISTOR": null, "STATUSDATO": "1949-01-01", "LOKALITETS": null, "OPRIND_BUN": "Landmåling ;  ; Ukendt ; j.nr.:DAS5--5-0", "BEMAERKGEO": "firk4200x4400B", "TIDLKNUDEN": null, "XKOORDINAT": "716409.55", "YKOORDINAT": "6181118.71", "OPRIND_KOO": "Uoplyst ; 14-JUN-06 ; Ukendt ; j.nr.:DAS5-20060614-0-0", "ID": "1137861" }, "geometry": { "type": "Point", "coordinates": [ 716409.550000000046566, 6181118.71 ] } },
{ "type": "Feature", "properties": { "KNUDENAVN": "1000077", "KNUDETYPE": "Overløb", "INTERPOLER": "N", "BUNDKOTE": "23.82", "OPLANDSNAV": "382", "EJERNAVN": "HOFOR Spildevand Herlev A/S", "DRIFTANSVA": "HOFOR A/S", "STATUS": "I brug/drift", "KATEGORIAF": "Hovedledning", "TYPEAFLOEB": "Fælles", "TILLADTILS": "Ingen høring", "BEMAERKNIN": "(auto) Vejnavn : Hjortespringvej.", "DATOETABLE": "1955-01-01", "DATOHISTOR": null, "STATUSDATO": "1955-01-01", "LOKALITETS": null, "OPRIND_BUN": "Landmåling ;  ; Ukendt ; j.nr.:DAS5--5-0", "BEMAERKGEO": "firk2200x6600B", "TIDLKNUDEN": null, "XKOORDINAT": "715788.17", "YKOORDINAT": "6181642.53", "OPRIND_KOO": "Uoplyst ; 26-JUL-10 ; Ukendt ; j.nr.:DAS5-20100726-0-0", "ID": "1137890" }, "geometry": { "type": "Point", "coordinates": [ 715788.167131104040891, 6181642.533420979976654 ] } },
{ "type": "Feature", "properties": { "KNUDENAVN": "1000911", "KNUDETYPE": "Overløb", "INTERPOLER": "N", "BUNDKOTE": "25.11", "OPLANDSNAV": null, "EJERNAVN": "HOFOR Spildevand Herlev A/S", "DRIFTANSVA": "HOFOR A/S", "STATUS": "I brug/drift", "KATEGORIAF": "Hovedledning", "TYPEAFLOEB": "Fælles", "TILLADTILS": "Ingen høring", "BEMAERKNIN": null, "DATOETABLE": "2013-05-01", "DATOHISTOR": null, "STATUSDATO": "2013-10-24", "LOKALITETS": "Hjortespringvej", "OPRIND_BUN": "Landmåling ;  ; Ukendt ; j.nr.:DAS5--5-0", "BEMAERKGEO": null, "TIDLKNUDEN": null, "XKOORDINAT": "715653.58", "YKOORDINAT": "6181788.63", "OPRIND_KOO": "Landmåling ; 01-JUL-10 ; CK-Landinspektørerne A/S ; j.nr.:Opmåling as built", "ID": "1274550" }, "geometry": { "type": "Point", "coordinates": [ 715653.57999999995809, 6181788.629999999888241 ] } },
{ "type": "Feature", "properties": { "KNUDENAVN": "1100006", "KNUDETYPE": "Overløb", "INTERPOLER": null, "BUNDKOTE": "13.66", "OPLANDSNAV": "HER_KAGSÅ", "EJERNAVN": "HOFOR Spildevand Herlev A/S", "DRIFTANSVA": "HOFOR A/S", "STATUS": "I brug/drift", "KATEGORIAF": "Hovedledning", "TYPEAFLOEB": "Fælles", "TILLADTILS": "Ejeren skal høres (forsyningen)", "BEMAERKNIN": "OPRETTET 03/01/91 FRA TV RAPPORT NR.:  20129010-D4022A.\n(auto) Vejnavn : HYLDEMORSVEJ", "DATOETABLE": "1948-01-01", "DATOHISTOR": null, "STATUSDATO": "1948-01-01", "LOKALITETS": null, "OPRIND_BUN": "Landmåling ;  ; Ukendt ; j.nr.:DAS5--5-0", "BEMAERKGEO": "OV08", "TIDLKNUDEN": null, "XKOORDINAT": "716835.47", "YKOORDINAT": "6181125.44", "OPRIND_KOO": "Uoplyst ; 14-JUN-06 ; Ukendt ; j.nr.:DAS5-20060614-0-0", "ID": "1137932" }, "geometry": { "type": "Point", "coordinates": [ 716835.46999999997206, 6181125.440000000409782 ] } },
{ "type": "Feature", "properties": { "KNUDENAVN": "1100010", "KNUDETYPE": "Overløb", "INTERPOLER": null, "BUNDKOTE": "14.39", "OPLANDSNAV": "HER_KAGSÅ", "EJERNAVN": "HOFOR Spildevand Herlev A/S", "DRIFTANSVA": "HOFOR A/S", "STATUS": "I brug/drift", "KATEGORIAF": "Hovedledning", "TYPEAFLOEB": "Fælles", "TILLADTILS": "Ejeren skal høres (forsyningen)", "BEMAERKNIN": "\n(auto) Vejnavn : SNEMANDSVEJ", "DATOETABLE": "1948-01-01", "DATOHISTOR": null, "STATUSDATO": "1948-01-01", "LOKALITETS": null, "OPRIND_BUN": "Landmåling ;  ; Ukendt ; j.nr.:DAS5--5-0", "BEMAERKGEO": "OV09, Snemandsvej", "TIDLKNUDEN": null, "XKOORDINAT": "716827.8", "YKOORDINAT": "6181270.84", "OPRIND_KOO": "Uoplyst ; 14-JUN-06 ; Ukendt ; j.nr.:DAS5-20060614-0-0", "ID": "1137936" }, "geometry": { "type": "Point", "coordinates": [ 716827.800000000046566, 6181270.839999999850988 ] } },
{ "type": "Feature", "properties": { "KNUDENAVN": "1100016", "KNUDETYPE": "Overløb", "INTERPOLER": null, "BUNDKOTE": "17.82", "OPLANDSNAV": "382", "EJERNAVN": "HOFOR Spildevand Herlev A/S", "DRIFTANSVA": "HOFOR A/S", "STATUS": "I brug/drift", "KATEGORIAF": "Hovedledning", "TYPEAFLOEB": "Fælles", "TILLADTILS": "Ejeren skal høres (forsyningen)", "BEMAERKNIN": null, "DATOETABLE": "1948-04-07", "DATOHISTOR": null, "STATUSDATO": "1948-04-07", "LOKALITETS": null, "OPRIND_BUN": "Landmåling ;  ; Ukendt ; j.nr.:DAS5--5-0", "BEMAERKGEO": "OV10, Alfevej", "TIDLKNUDEN": null, "XKOORDINAT": "716721.56", "YKOORDINAT": "6181471.08", "OPRIND_KOO": "Uoplyst ; 14-JUN-06 ; Ukendt ; j.nr.:DAS5-20060614-0-0", "ID": "1137942" }, "geometry": { "type": "Point", "coordinates": [ 716721.562387577956542, 6181471.078697020187974 ] } },
{ "type": "Feature", "properties": { "KNUDENAVN": "1100034", "KNUDETYPE": "Overløb", "INTERPOLER": null, "BUNDKOTE": "21.01", "OPLANDSNAV": "HER_KAGSÅ", "EJERNAVN": "HOFOR Spildevand Herlev A/S", "DRIFTANSVA": "HOFOR A/S", "STATUS": "I brug/drift", "KATEGORIAF": "Hovedledning", "TYPEAFLOEB": "Fælles", "TILLADTILS": "Ejeren skal høres (forsyningen)", "BEMAERKNIN": "i haven\n(auto) Vejnavn : Langdyssen, OV12, Langdyssen 54B", "DATOETABLE": "1948-01-01", "DATOHISTOR": null, "STATUSDATO": "1948-01-01", "LOKALITETS": null, "OPRIND_BUN": "Landmåling ; 16-APR-12 ; Landinspektørfirmaet LE34 ; j.nr.:LE34-2012-04-20", "BEMAERKGEO": "firk2800x2900B", "TIDLKNUDEN": null, "XKOORDINAT": "716491.73", "YKOORDINAT": "6182061.42", "OPRIND_KOO": "Landmåling ; 16-APR-12 ; Landinspektørfirmaet LE34 ; j.nr.:LE34-2012-04-20", "ID": "1137960" }, "geometry": { "type": "Point", "coordinates": [ 716491.729999999981374, 6182061.42 ] } },
{ "type": "Feature", "properties": { "KNUDENAVN": "1100040", "KNUDETYPE": "Overløb", "INTERPOLER": null, "BUNDKOTE": "21.13", "OPLANDSNAV": "HER_KAGSÅ", "EJERNAVN": "HOFOR Spildevand Herlev A/S", "DRIFTANSVA": "HOFOR A/S", "STATUS": "I brug/drift", "KATEGORIAF": "Hovedledning", "TYPEAFLOEB": "Fælles", "TILLADTILS": "Ejeren skal høres (forsyningen)", "BEMAERKNIN": "i baghaven\n(auto) Vejnavn : Langdyssen, OV13, Langdyssen 68", "DATOETABLE": "1948-01-01", "DATOHISTOR": null, "STATUSDATO": "1948-01-01", "LOKALITETS": null, "OPRIND_BUN": "Landmåling ;  ; Ukendt ; j.nr.:DAS5--5-0", "BEMAERKGEO": "firk2700x3500B", "TIDLKNUDEN": null, "XKOORDINAT": "716448.21", "YKOORDINAT": "6182228.68", "OPRIND_KOO": "Uoplyst ; 27-JUL-10 ; Ukendt ; j.nr.:DAS5-20100727-0-0", "ID": "1137966" }, "geometry": { "type": "Point", "coordinates": [ 716448.209999999962747, 6182228.679999999701977 ] } },
{ "type": "Feature", "properties": { "KNUDENAVN": "1100044", "KNUDETYPE": "Overløb", "INTERPOLER": "N", "BUNDKOTE": "21.73", "OPLANDSNAV": "HER_KAGSÅ", "EJERNAVN": "HOFOR Spildevand Herlev A/S", "DRIFTANSVA": "HOFOR A/S", "STATUS": "I brug/drift", "KATEGORIAF": "Hovedledning", "TYPEAFLOEB": "Fælles", "TILLADTILS": "Ejeren skal høres (forsyningen)", "BEMAERKNIN": "i haven\n, OV14, Langdyssen 80", "DATOETABLE": "1948-04-15", "DATOHISTOR": null, "STATUSDATO": "1948-04-15", "LOKALITETS": null, "OPRIND_BUN": "Skønnet ;  ;  ; j.nr.:9031", "BEMAERKGEO": "firk2800x3100B", "TIDLKNUDEN": null, "XKOORDINAT": "716375.71", "YKOORDINAT": "6182349.39", "OPRIND_KOO": "Uoplyst ; 14-JUN-06 ; Ukendt ; j.nr.:DAS5-20060614-0-0", "ID": "1138015" }, "geometry": { "type": "Point", "coordinates": [ 716375.709999999962747, 6182349.389999999664724 ] } },
{ "type": "Feature", "properties": { "KNUDENAVN": "1108001", "KNUDETYPE": "Overløb", "INTERPOLER": "N", "BUNDKOTE": "13.51", "OPLANDSNAV": "382", "EJERNAVN": "HOFOR Spildevand Herlev A/S", "DRIFTANSVA": "HOFOR A/S", "STATUS": "I brug/drift", "KATEGORIAF": "Hovedledning", "TYPEAFLOEB": "Fælles", "TILLADTILS": "Ejeren skal høres (forsyningen)", "BEMAERKNIN": "Fra TV rapport nr: 20129014-D4022A.KS 036-2021  \n(auto) Vejnavn : ELVERHØJEN", "DATOETABLE": "1952-01-01", "DATOHISTOR": null, "STATUSDATO": null, "LOKALITETS": null, "OPRIND_BUN": "Landmåling ;  ; Afløbs planlægningsafdeling tegningssektion ; j.nr.:9021", "BEMAERKGEO": "firk2000x2700B", "TIDLKNUDEN": null, "XKOORDINAT": "716612.24", "YKOORDINAT": "6181057.93", "OPRIND_KOO": "Uoplyst ; 14-JUN-06 ; Ukendt ; j.nr.:DAS5-20060614-0-0", "ID": "1138067" }, "geometry": { "type": "Point", "coordinates": [ 716612.241740287980065, 6181057.925680919550359 ] } },
{ "type": "Feature", "properties": { "KNUDENAVN": "1200001", "KNUDETYPE": "Overløb", "INTERPOLER": null, "BUNDKOTE": "6.79", "OPLANDSNAV": "HER_ST.VILLA", "EJERNAVN": "HOFOR Spildevand Herlev A/S", "DRIFTANSVA": "HOFOR A/S", "STATUS": "I brug/drift", "KATEGORIAF": "Hovedledning", "TYPEAFLOEB": "Fælles", "TILLADTILS": "Ejeren skal høres (forsyningen)", "BEMAERKNIN": "\n(auto) Vejnavn : SYMFONIVEJ", "DATOETABLE": "1944-01-01", "DATOHISTOR": null, "STATUSDATO": "1944-01-01", "LOKALITETS": null, "OPRIND_BUN": "Landmåling ;  ; Ukendt ; j.nr.:DAS5--5-0", "BEMAERKGEO": "firk4200x5500B", "TIDLKNUDEN": null, "XKOORDINAT": "716870.41", "YKOORDINAT": "6179747.2", "OPRIND_KOO": "Uoplyst ; 14-JUN-06 ; Ukendt ; j.nr.:DAS5-20060614-0-0", "ID": "1140355" }, "geometry": { "type": "Point", "coordinates": [ 716870.410000000032596, 6179747.200000000186265 ] } },
{ "type": "Feature", "properties": { "KNUDENAVN": "1200041", "KNUDETYPE": "Overløb", "INTERPOLER": null, "BUNDKOTE": "13.06", "OPLANDSNAV": "382", "EJERNAVN": "HOFOR Spildevand Herlev A/S", "DRIFTANSVA": "HOFOR A/S", "STATUS": "I brug/drift", "KATEGORIAF": "Hovedledning", "TYPEAFLOEB": "Fælles", "TILLADTILS": "Ejeren skal høres (forsyningen)", "BEMAERKNIN": "Banket renoveret 2005\n(auto) Vejnavn : TORNEROSEVEJ", "DATOETABLE": "1969-01-01", "DATOHISTOR": null, "STATUSDATO": null, "LOKALITETS": null, "OPRIND_BUN": "Landmåling ; 18-MAR-11 ; Ukendt ; j.nr.:DAS5-20110318-5-0", "BEMAERKGEO": "firk1500x2500B", "TIDLKNUDEN": null, "XKOORDINAT": "716209.61", "YKOORDINAT": "6180743.62", "OPRIND_KOO": "Uoplyst ; 14-JUN-06 ; Ukendt ; j.nr.:DAS5-20060614-0-0", "ID": "1140316" }, "geometry": { "type": "Point", "coordinates": [ 716209.609999792999588, 6180743.619999749585986 ] } },
{ "type": "Feature", "properties": { "KNUDENAVN": "1204900", "KNUDETYPE": "Overløb", "INTERPOLER": null, "BUNDKOTE": "16.2", "OPLANDSNAV": "382", "EJERNAVN": "HOFOR Spildevand Herlev A/S", "DRIFTANSVA": "HOFOR A/S", "STATUS": "I brug/drift", "KATEGORIAF": "Hovedledning", "TYPEAFLOEB": "Fælles", "TILLADTILS": "Ejeren skal høres (forsyningen)", "BEMAERKNIN": "\n(auto) Vejnavn : Herlev Bygade", "DATOETABLE": "1989-01-01", "DATOHISTOR": null, "STATUSDATO": "1989-01-01", "LOKALITETS": null, "OPRIND_BUN": "Skønnet ;  ;  ; j.nr.:9031", "BEMAERKGEO": null, "TIDLKNUDEN": null, "XKOORDINAT": "715889.93", "YKOORDINAT": "6180845.86", "OPRIND_KOO": "Digitaliseret fra kort ;  ; Afløbs planlægningsafdeling tegningssektion ; j.nr.:9003", "ID": "1140392" }, "geometry": { "type": "Point", "coordinates": [ 715889.925306254997849, 6180845.85849008988589 ] } },
{ "type": "Feature", "properties": { "KNUDENAVN": "2407001", "KNUDETYPE": "Overløb", "INTERPOLER": null, "BUNDKOTE": "15.73", "OPLANDSNAV": "HER_MIDTBYEN", "EJERNAVN": "HOFOR Spildevand Herlev A/S", "DRIFTANSVA": "HOFOR A/S", "STATUS": "I brug/drift", "KATEGORIAF": "Hovedledning", "TYPEAFLOEB": "Fælles", "TILLADTILS": "Ingen høring", "BEMAERKNIN": "SCTASK0127362", "DATOETABLE": "1943-01-01", "DATOHISTOR": null, "STATUSDATO": "1943-01-01", "LOKALITETS": null, "OPRIND_BUN": "Skønnet ;  ;  ; j.nr.:9031", "BEMAERKGEO": null, "TIDLKNUDEN": null, "XKOORDINAT": "715660.33", "YKOORDINAT": "6180677.13", "OPRIND_KOO": "Landmåling ;  ; Afløbs planlægningsafdeling tegningssektion ; j.nr.:9021", "ID": "1140303" }, "geometry": { "type": "Point", "coordinates": [ 715660.32999999995809, 6180677.129999999888241 ] } },
{ "type": "Feature", "properties": { "KNUDENAVN": "2407029", "KNUDETYPE": "Overløb", "INTERPOLER": "N", "BUNDKOTE": "25.9", "OPLANDSNAV": null, "EJERNAVN": "HOFOR Spildevand Herlev A/S", "DRIFTANSVA": "HOFOR A/S", "STATUS": "I brug/drift", "KATEGORIAF": "Hovedledning", "TYPEAFLOEB": "Fælles", "TILLADTILS": "Ejeren skal høres (forsyningen)", "BEMAERKNIN": "(auto) Vejnavn : Herlev", "DATOETABLE": "1937-01-01", "DATOHISTOR": null, "STATUSDATO": null, "LOKALITETS": null, "OPRIND_BUN": "Landmåling ;  ; Afløbs planlægningsafdeling tegningssektion ; j.nr.:9021", "BEMAERKGEO": "ø1000B", "TIDLKNUDEN": null, "XKOORDINAT": "715141.21", "YKOORDINAT": "6180816.96", "OPRIND_KOO": "Landmåling ;  ; Afløbs planlægningsafdeling tegningssektion ; j.nr.:9021", "ID": "1139759" }, "geometry": { "type": "Point", "coordinates": [ 715141.210001057013869, 6180816.960001810453832 ] } },
{ "type": "Feature", "properties": { "KNUDENAVN": "381202", "KNUDETYPE": "Overløb", "INTERPOLER": null, "BUNDKOTE": "8.07", "OPLANDSNAV": "Ukendt", "EJERNAVN": "HOFOR Spildevand København A/S", "DRIFTANSVA": "HOFOR A/S", "STATUS": "I brug/drift", "KATEGORIAF": "Hovedledning", "TYPEAFLOEB": "Fælles", "TILLADTILS": "Ingen høring", "BEMAERKNIN": "QA21S4; Tinglyst: 3531 HU 17.01.1956 sikret 3x3m  A15905 (målepunkter mangler xy kv=4)", "DATOETABLE": "1952-06-01", "DATOHISTOR": null, "STATUSDATO": "2012-04-11", "LOKALITETS": "ÅFLØJEN", "OPRIND_BUN": "Landmåling ;  ; Afløbs planlægningsafdeling tegningssektion ; j.nr.:9021", "BEMAERKGEO": "Overløb", "TIDLKNUDEN": null, "XKOORDINAT": "717185.16", "YKOORDINAT": "6179690.89", "OPRIND_KOO": "Digitaliseret fra kort ;  ; Afløbs planlægningsafdeling tegningssektion ; j.nr.:9006", "ID": "898926" }, "geometry": { "type": "Point", "coordinates": [ 717185.161875086952932, 6179690.891006690450013 ] } },
{ "type": "Feature", "properties": { "KNUDENAVN": "381229", "KNUDETYPE": "Overløb", "INTERPOLER": null, "BUNDKOTE": "8.34", "OPLANDSNAV": "Ukendt", "EJERNAVN": "HOFOR Spildevand København A/S", "DRIFTANSVA": "HOFOR A/S", "STATUS": "I brug/drift", "KATEGORIAF": "Hovedledning", "TYPEAFLOEB": "Fælles", "TILLADTILS": "Ingen høring", "BEMAERKNIN": "QA21S4; Tinglyst: 3574 HU 23.06.1961 sikret 3x3m  A15906 (målepunkter mangler xy kv=4)", "DATOETABLE": "1956-06-01", "DATOHISTOR": null, "STATUSDATO": "2012-04-11", "LOKALITETS": "ÅFLØJEN", "OPRIND_BUN": null, "BEMAERKGEO": "Overløb", "TIDLKNUDEN": null, "XKOORDINAT": "717224.95", "YKOORDINAT": "6179804.72", "OPRIND_KOO": "Digitaliseret fra kort ;  ; Afløbs planlægningsafdeling tegningssektion ; j.nr.:9006", "ID": "898917" }, "geometry": { "type": "Point", "coordinates": [ 717224.951348577043973, 6179804.718015830032527 ] } },
{ "type": "Feature", "properties": { "KNUDENAVN": "4000028", "KNUDETYPE": "Overløb", "INTERPOLER": null, "BUNDKOTE": "17.13", "OPLANDSNAV": null, "EJERNAVN": "HOFOR Spildevand Herlev A/S", "DRIFTANSVA": "HOFOR A/S", "STATUS": "I brug/drift", "KATEGORIAF": "Hovedledning", "TYPEAFLOEB": "Regnvand", "TILLADTILS": "Ejeren skal høres (forsyningen)", "BEMAERKNIN": "Terræn kote målt til 18,75 DVR90 se KS 111-2017, KS 270-2017", "DATOETABLE": "1953-01-01", "DATOHISTOR": null, "STATUSDATO": null, "LOKALITETS": null, "OPRIND_BUN": "Digitaliseret fra kort ; 01-OCT-12 ; Ukendt ; j.nr.:DC53", "BEMAERKGEO": "ø2000B", "TIDLKNUDEN": null, "XKOORDINAT": "715782.3", "YKOORDINAT": "6180804.44", "OPRIND_KOO": "Uoplyst ; 14-JUN-06 ; Ukendt ; j.nr.:DAS5-20060614-0-0", "ID": "1139696" }, "geometry": { "type": "Point", "coordinates": [ 715782.304684931994416, 6180804.444132709875703 ] } },
{ "type": "Feature", "properties": { "KNUDENAVN": "4000082", "KNUDETYPE": "Overløb", "INTERPOLER": null, "BUNDKOTE": "24.47", "OPLANDSNAV": null, "EJERNAVN": "HOFOR Spildevand Herlev A/S", "DRIFTANSVA": "HOFOR A/S", "STATUS": "I brug/drift", "KATEGORIAF": "Hovedledning", "TYPEAFLOEB": "Regnvand", "TILLADTILS": "Ejeren skal høres (forsyningen)", "BEMAERKNIN": "\n(auto) Vejnavn : Lidsøvej", "DATOETABLE": "1975-01-01", "DATOHISTOR": null, "STATUSDATO": "1975-01-01", "LOKALITETS": null, "OPRIND_BUN": "Digitaliseret fra kort ; 01-OCT-12 ; Ukendt ; j.nr.:DC53", "BEMAERKGEO": null, "TIDLKNUDEN": null, "XKOORDINAT": "714946.43", "YKOORDINAT": "6182172.51", "OPRIND_KOO": "Uoplyst ; 14-JUN-06 ; Ukendt ; j.nr.:DAS5-20060614-0-0", "ID": "1139750" }, "geometry": { "type": "Point", "coordinates": [ 714946.425000000046566, 6182172.512000000104308 ] } },
{ "type": "Feature", "properties": { "KNUDENAVN": "4300002", "KNUDETYPE": "Overløb", "INTERPOLER": null, "BUNDKOTE": "21.79", "OPLANDSNAV": "HER_HER.VEST", "EJERNAVN": "HOFOR Spildevand Herlev A/S", "DRIFTANSVA": "HOFOR A/S", "STATUS": "I brug/drift", "KATEGORIAF": "Hovedledning", "TYPEAFLOEB": "Regnvand", "TILLADTILS": "Ejeren skal høres (forsyningen)", "BEMAERKNIN": "\n(auto) Vejnavn : Grønsvinget", "DATOETABLE": "1964-01-01", "DATOHISTOR": null, "STATUSDATO": "1964-01-01", "LOKALITETS": null, "OPRIND_BUN": "Andet ; 23-NOV-09 ; Ukendt ; j.nr.:DAS5-20091123-50-0", "BEMAERKGEO": "firk3700x3700", "TIDLKNUDEN": null, "XKOORDINAT": "714108.32", "YKOORDINAT": "6181446.74", "OPRIND_KOO": "Andet ; 05-MAR-09 ; Ukendt ; j.nr.:DAS5-20090305-50-0", "ID": "1141713" }, "geometry": { "type": "Point", "coordinates": [ 714108.319999999948777, 6181446.740000000223517 ] } },
{ "type": "Feature", "properties": { "KNUDENAVN": "4300053", "KNUDETYPE": "Overløb", "INTERPOLER": null, "BUNDKOTE": "29.26", "OPLANDSNAV": "HER_HER.VEST", "EJERNAVN": "HOFOR Spildevand Herlev A/S", "DRIFTANSVA": "HOFOR A/S", "STATUS": "I brug/drift", "KATEGORIAF": "Hovedledning", "TYPEAFLOEB": "Regnvand", "TILLADTILS": "Ingen høring", "BEMAERKNIN": "\n(auto) Vejnavn : Anishaven", "DATOETABLE": "1975-01-01", "DATOHISTOR": null, "STATUSDATO": "1975-01-01", "LOKALITETS": null, "OPRIND_BUN": "Digitaliseret fra kort ; 01-OCT-12 ; Ukendt ; j.nr.:DC53", "BEMAERKGEO": null, "TIDLKNUDEN": null, "XKOORDINAT": "714943.64", "YKOORDINAT": "6182494.32", "OPRIND_KOO": "Skønnet ; 07-APR-10 ; Ukendt ; j.nr.:DAS5-20100407-1-0", "ID": "1140931" }, "geometry": { "type": "Point", "coordinates": [ 714943.64000000001397, 6182494.320000000298023 ] } },
{ "type": "Feature", "properties": { "KNUDENAVN": "4312903", "KNUDETYPE": "Overløb", "INTERPOLER": null, "BUNDKOTE": "22.27", "OPLANDSNAV": "HER_UKENDT", "EJERNAVN": "HOFOR Spildevand Herlev A/S", "DRIFTANSVA": "HOFOR A/S", "STATUS": "I brug/drift", "KATEGORIAF": "Hovedledning", "TYPEAFLOEB": "Regnvand", "TILLADTILS": "Ejeren skal høres (forsyningen)", "BEMAERKNIN": "eng", "DATOETABLE": "2009-05-20", "DATOHISTOR": null, "STATUSDATO": "2009-05-20", "LOKALITETS": null, "OPRIND_BUN": "Andet ; 23-NOV-09 ; Ukendt ; j.nr.:DAS5-20091123-50-0", "BEMAERKGEO": null, "TIDLKNUDEN": null, "XKOORDINAT": "714131.81", "YKOORDINAT": "6181562.99", "OPRIND_KOO": "Uoplyst ; 26-MAR-09 ; Ukendt ; j.nr.:DAS5-20090326-0-0", "ID": "1142307" }, "geometry": { "type": "Point", "coordinates": [ 714131.810000000055879, 6181562.990000000223517 ] } },
{ "type": "Feature", "properties": { "KNUDENAVN": "4321031", "KNUDETYPE": "Overløb", "INTERPOLER": null, "BUNDKOTE": "8.39", "OPLANDSNAV": "HER_vest", "EJERNAVN": "HOFOR Spildevand Herlev A/S", "DRIFTANSVA": "HOFOR A/S", "STATUS": "I brug/drift", "KATEGORIAF": "Hovedledning", "TYPEAFLOEB": "Regnvand", "TILLADTILS": "Ejeren skal høres (forsyningen)", "BEMAERKNIN": "2 dæksler\n(auto) Vejnavn : Marielundvej", "DATOETABLE": "1999-01-01", "DATOHISTOR": null, "STATUSDATO": "1999-01-01", "LOKALITETS": null, "OPRIND_BUN": "Digitaliseret fra kort ;  ;  ; j.nr.:9030", "BEMAERKGEO": "Terrænkote taget fra digital højdemodel", "TIDLKNUDEN": null, "XKOORDINAT": "715415.42", "YKOORDINAT": "6179523.47", "OPRIND_KOO": "Skønnet ; 14-JUN-06 ; Ukendt ; j.nr.:DAS5-20060614-1-0", "ID": "1142271" }, "geometry": { "type": "Point", "coordinates": [ 715415.42000000004191, 6179523.46999999973923 ] } },
{ "type": "Feature", "properties": { "KNUDENAVN": "4322917", "KNUDETYPE": "Overløb", "INTERPOLER": "N", "BUNDKOTE": "9.64", "OPLANDSNAV": null, "EJERNAVN": "HOFOR Spildevand Herlev A/S", "DRIFTANSVA": "HOFOR A/S", "STATUS": "I brug/drift", "KATEGORIAF": "Hovedledning", "TYPEAFLOEB": "Regnvand", "TILLADTILS": "Ejeren skal høres (forsyningen)", "BEMAERKNIN": "Sendt til landmåler 13-01-2021 ønsker foto materiale for kantens placering", "DATOETABLE": "2000-01-01", "DATOHISTOR": null, "STATUSDATO": null, "LOKALITETS": null, "OPRIND_BUN": "Landmåling ; 18-MAR-11 ; Ukendt ; j.nr.:DAS5-20110318-5-0", "BEMAERKGEO": "ø1250B", "TIDLKNUDEN": null, "XKOORDINAT": "715920.3", "YKOORDINAT": "6179623.82", "OPRIND_KOO": "Nedstik ;  ; Afløbs planlægningsafdeling tegningssektion ; j.nr.:9004", "ID": "1142269" }, "geometry": { "type": "Point", "coordinates": [ 715920.300444680964574, 6179623.824161970056593 ] } },
{ "type": "Feature", "properties": { "KNUDENAVN": "4400003", "KNUDETYPE": "Overløb", "INTERPOLER": null, "BUNDKOTE": "20.53", "OPLANDSNAV": null, "EJERNAVN": "HOFOR Spildevand Herlev A/S", "DRIFTANSVA": "HOFOR A/S", "STATUS": "I brug/drift", "KATEGORIAF": "Hovedledning", "TYPEAFLOEB": "Regnvand", "TILLADTILS": "Ejeren skal høres (forsyningen)", "BEMAERKNIN": "Overløb med sandfang (til Våbenstedvej bassinet) ombyg. i 7\n(auto) Vejnavn : Våbenstedvej", "DATOETABLE": null, "DATOHISTOR": null, "STATUSDATO": "1987-07-01", "LOKALITETS": null, "OPRIND_BUN": "Landmåling ;  ; Afløbs planlægningsafdeling tegningssektion ; j.nr.:9021", "BEMAERKGEO": null, "TIDLKNUDEN": null, "XKOORDINAT": "715314.1", "YKOORDINAT": "6181509.7", "OPRIND_KOO": "Uoplyst ; 14-JUN-06 ; Ukendt ; j.nr.:DAS5-20060614-0-0", "ID": "1139789" }, "geometry": { "type": "Point", "coordinates": [ 715314.096157139982097, 6181509.695798790082335 ] } },
{ "type": "Feature", "properties": { "KNUDENAVN": "4403001", "KNUDETYPE": "Overløb", "INTERPOLER": null, "BUNDKOTE": "20.64", "OPLANDSNAV": null, "EJERNAVN": "HOFOR Spildevand Herlev A/S", "DRIFTANSVA": "HOFOR A/S", "STATUS": "I brug/drift", "KATEGORIAF": "Hovedledning", "TYPEAFLOEB": "Regnvand", "TILLADTILS": "Ejeren skal høres (forsyningen)", "BEMAERKNIN": "Brønd med kontraklap\n 3 stk ø200", "DATOETABLE": "1988-01-01", "DATOHISTOR": null, "STATUSDATO": null, "LOKALITETS": null, "OPRIND_BUN": "Digitaliseret fra kort ; 01-OCT-12 ; Ukendt ; j.nr.:DC53", "BEMAERKGEO": "INDV. MÅL: 1480X2000. I BUNDEN 3 STK. Ø200 KONTRAKLAPPER kote = 21,78 DVR90", "TIDLKNUDEN": null, "XKOORDINAT": "715302.3", "YKOORDINAT": "6181436.5", "OPRIND_KOO": "Uoplyst ; 14-JUN-06 ; Ukendt ; j.nr.:DAS5-20060614-0-0", "ID": "1140003" }, "geometry": { "type": "Point", "coordinates": [ 715302.295489417039789, 6181436.499217850156128 ] } },
{ "type": "Feature", "properties": { "KNUDENAVN": "4601004", "KNUDETYPE": "Overløb", "INTERPOLER": null, "BUNDKOTE": "23.56", "OPLANDSNAV": "HER_OPL.F", "EJERNAVN": "HOFOR Spildevand Herlev A/S", "DRIFTANSVA": "HOFOR A/S", "STATUS": "I brug/drift", "KATEGORIAF": "Hovedledning", "TYPEAFLOEB": "Regnvand", "TILLADTILS": "Ingen høring", "BEMAERKNIN": "\n(auto) Vejnavn : STOKHOLTBUEN", "DATOETABLE": "1976-01-01", "DATOHISTOR": null, "STATUSDATO": null, "LOKALITETS": null, "OPRIND_BUN": "Digitaliseret fra kort ;  ;  ; j.nr.:9030", "BEMAERKGEO": "Terrænkote taget fra digital højdemodel", "TIDLKNUDEN": null, "XKOORDINAT": "713863.08", "YKOORDINAT": "6181966.31", "OPRIND_KOO": "Uoplyst ; 14-JUN-06 ; Ukendt ; j.nr.:DAS5-20060614-0-0", "ID": "1141103" }, "geometry": { "type": "Point", "coordinates": [ 713863.07999999995809, 6181966.309999999590218 ] } },
{ "type": "Feature", "properties": { "KNUDENAVN": "5500007", "KNUDETYPE": "Overløb", "INTERPOLER": null, "BUNDKOTE": "31.08", "OPLANDSNAV": null, "EJERNAVN": "HOFOR Spildevand Herlev A/S", "DRIFTANSVA": "HOFOR A/S", "STATUS": "I brug/drift", "KATEGORIAF": "Hovedledning", "TYPEAFLOEB": "Regnvand", "TILLADTILS": "Ejeren skal høres (forsyningen)", "BEMAERKNIN": "\n(auto) Vejnavn : Ingefærhaven", "DATOETABLE": "1975-01-01", "DATOHISTOR": null, "STATUSDATO": null, "LOKALITETS": null, "OPRIND_BUN": "Digitaliseret fra kort ; 01-OCT-12 ; Ukendt ; j.nr.:DC53", "BEMAERKGEO": "ø1000B", "TIDLKNUDEN": null, "XKOORDINAT": "715940.96", "YKOORDINAT": "6182714.06", "OPRIND_KOO": "Uoplyst ; 14-JUN-06 ; Ukendt ; j.nr.:DAS5-20060614-0-0", "ID": "1138521" }, "geometry": { "type": "Point", "coordinates": [ 715940.959999999962747, 6182714.064000000245869 ] } },
{ "type": "Feature", "properties": { "KNUDENAVN": "6000007A", "KNUDETYPE": "Overløb", "INTERPOLER": null, "BUNDKOTE": "19.71", "OPLANDSNAV": null, "EJERNAVN": "HOFOR Spildevand Herlev A/S", "DRIFTANSVA": "HOFOR A/S", "STATUS": "I brug/drift", "KATEGORIAF": "Hovedledning", "TYPEAFLOEB": "Regnvand", "TILLADTILS": "Ejeren skal høres (betinget af udløbstilladelse)", "BEMAERKNIN": "KONTRAKLAP Ø540 - BK: 21,76. INDV. MÅL: 2000X2800", "DATOETABLE": "2010-09-03", "DATOHISTOR": null, "STATUSDATO": null, "LOKALITETS": null, "OPRIND_BUN": "Digitaliseret fra kort ;  ;  ; j.nr.:9030", "BEMAERKGEO": null, "TIDLKNUDEN": null, "XKOORDINAT": "714535.96", "YKOORDINAT": "6183679.62", "OPRIND_KOO": "Digitaliseret fra kort ;  ;  ; j.nr.:9030", "ID": "1143958" }, "geometry": { "type": "Point", "coordinates": [ 714535.959526816965081, 6183679.624330650083721 ] } },
{ "type": "Feature", "properties": { "KNUDENAVN": "6801005A", "KNUDETYPE": "Overløb", "INTERPOLER": null, "BUNDKOTE": "-99", "OPLANDSNAV": null, "EJERNAVN": "HOFOR Spildevand Herlev A/S", "DRIFTANSVA": "HOFOR A/S", "STATUS": "I brug/drift", "KATEGORIAF": "Hovedledning", "TYPEAFLOEB": "Regnvand", "TILLADTILS": "Ejeren skal høres (forsyningen)", "BEMAERKNIN": "BYGVÆRKET OPDELT I 2 KAMRE UNDER HVER SIT DÆKSEL (6801004+5) OG FORBUNDET MED DYKKET LEDNING/GENNEMLØB.", "DATOETABLE": "1973-01-01", "DATOHISTOR": null, "STATUSDATO": null, "LOKALITETS": null, "OPRIND_BUN": null, "BEMAERKGEO": null, "TIDLKNUDEN": null, "XKOORDINAT": "713103.03", "YKOORDINAT": "6183310.38", "OPRIND_KOO": null, "ID": "1143959" }, "geometry": { "type": "Point", "coordinates": [ 713103.029505206039175, 6183310.376868490129709 ] } },
{ "type": "Feature", "properties": { "KNUDENAVN": "A100025", "KNUDETYPE": "Overløb", "INTERPOLER": null, "BUNDKOTE": "19.97", "OPLANDSNAV": "HER_KAGSÅ", "EJERNAVN": "HOFOR Spildevand Herlev A/S", "DRIFTANSVA": "HOFOR A/S", "STATUS": "I brug/drift", "KATEGORIAF": "Hovedledning", "TYPEAFLOEB": "Fælles", "TILLADTILS": "Ejeren skal høres (forsyningen)", "BEMAERKNIN": "Afskærende ledning\n, OV11, Kagsåvej", "DATOETABLE": "1948-01-01", "DATOHISTOR": null, "STATUSDATO": null, "LOKALITETS": null, "OPRIND_BUN": "Landmåling ; 26-JUL-10 ; Ukendt ; j.nr.:DAS5-20100726-5-0", "BEMAERKGEO": "firk3000x4500", "TIDLKNUDEN": null, "XKOORDINAT": "716611.15", "YKOORDINAT": "6181773.98", "OPRIND_KOO": "Uoplyst ; 26-JUL-10 ; Ukendt ; j.nr.:DAS5-20100726-0-0", "ID": "1142311" }, "geometry": { "type": "Point", "coordinates": [ 716611.150000000023283, 6181773.980000000447035 ] } },
{ "type": "Feature", "properties": { "KNUDENAVN": "A306002", "KNUDETYPE": "Overløb", "INTERPOLER": null, "BUNDKOTE": "16.24", "OPLANDSNAV": "HER_HERVEST", "EJERNAVN": "HOFOR Spildevand Herlev A/S", "DRIFTANSVA": "HOFOR A/S", "STATUS": "I brug/drift", "KATEGORIAF": "Hovedledning", "TYPEAFLOEB": "Regnvand", "TILLADTILS": "Ejeren skal høres (forsyningen)", "BEMAERKNIN": "Sandfang og Overløb", "DATOETABLE": "1949-01-01", "DATOHISTOR": null, "STATUSDATO": "1949-01-01", "LOKALITETS": null, "OPRIND_BUN": "Digitaliseret fra kort ;  ; Afløbs planlægningsafdeling tegningssektion ; j.nr.:9003", "BEMAERKGEO": "ø1000B", "TIDLKNUDEN": null, "XKOORDINAT": "714741.46", "YKOORDINAT": "6180637.83", "OPRIND_KOO": "Uoplyst ; 29-NOV-06 ; Ukendt ; j.nr.:DAS5-20061129-0-0", "ID": "1142272" }, "geometry": { "type": "Point", "coordinates": [ 714741.459999999962747, 6180637.83 ] } }
]
}
