{
"type": "FeatureCollection",
"name": "udloeb",
"crs": { "type": "name", "properties": { "name": "urn:ogc:def:crs:EPSG::25832" } },
"features": [
{ "type": "Feature", "properties": { "KNUDENAVN": "1000028184", "KNUDETYPE": "Udløb", "INTERPOLER": "N", "BUNDKOTE": "8.63", "OPLANDSNAV": "382", "EJERNAVN": "Fælles kommunalt anlæg med driftsfordeling", "DRIFTANSVA": "HOFOR A/S", "STATUS": "I brug/drift", "KATEGORIAF": "Hovedledning", "TYPEAFLOEB": "Fælles", "TILLADTILS": "Ejeren skal høres (betinget af udløbstilladelse)", "BEMAERKNIN": "KS 021-2022", "DATOETABLE": null, "DATOHISTOR": null, "STATUSDATO": "2012-05-26", "LOKALITETS": null, "OPRIND_BUN": "Landmåling ;  ; Afløbs planlægningsafdeling tegningssektion ; j.nr.:9021", "BEMAERKGEO": null, "TIDLKNUDEN": null, "XKOORDINAT": "717113.01", "YKOORDINAT": "6179646.58", "OPRIND_KOO": "Landmåling ;  ; Afløbs planlægningsafdeling tegningssektion ; j.nr.:9021", "ID": "1212674" }, "geometry": { "type": "Point", "coordinates": [ 717113.009429175057448, 6179646.583025489933789 ] } },
{ "type": "Feature", "properties": { "KNUDENAVN": "1000031459", "KNUDETYPE": "Udløb", "INTERPOLER": null, "BUNDKOTE": "-99", "OPLANDSNAV": null, "EJERNAVN": "HOFOR Spildevand Herlev A/S", "DRIFTANSVA": "HOFOR A/S", "STATUS": "I brug/drift", "KATEGORIAF": "Hovedledning", "TYPEAFLOEB": "Regnvand", "TILLADTILS": "Ingen høring", "BEMAERKNIN": "SCTASK0110806", "DATOETABLE": "1997-11-13", "DATOHISTOR": null, "STATUSDATO": null, "LOKALITETS": null, "OPRIND_BUN": "Digitaliseret fra kort ;  ; Afløbs planlægningsafdeling tegningssektion ; j.nr.:9003", "BEMAERKGEO": null, "TIDLKNUDEN": null, "XKOORDINAT": "715543.18", "YKOORDINAT": "6180031.9", "OPRIND_KOO": null, "ID": "1218834" }, "geometry": { "type": "Point", "coordinates": [ 715543.182294131023809, 6180031.900743070058525 ] } },
{ "type": "Feature", "properties": { "KNUDENAVN": "1000045825", "KNUDETYPE": "Udløb", "INTERPOLER": null, "BUNDKOTE": "18.8", "OPLANDSNAV": null, "EJERNAVN": "HOFOR Spildevand Herlev A/S", "DRIFTANSVA": "HOFOR A/S", "STATUS": "I brug/drift", "KATEGORIAF": "Hovedledning", "TYPEAFLOEB": "Regnvand", "TILLADTILS": "Ingen høring", "BEMAERKNIN": null, "DATOETABLE": null, "DATOHISTOR": null, "STATUSDATO": null, "LOKALITETS": null, "OPRIND_BUN": "Andet ;  ;  ; j.nr.:Plan oplyser", "BEMAERKGEO": null, "TIDLKNUDEN": null, "XKOORDINAT": "713218.1", "YKOORDINAT": "6184298", "OPRIND_KOO": "Andet ;  ;  ; j.nr.:Plan oplyser", "ID": "1280666" }, "geometry": { "type": "Point", "coordinates": [ 713218.099999999976717, 6184298.0 ] } },
{ "type": "Feature", "properties": { "KNUDENAVN": "1000045828", "KNUDETYPE": "Udløb", "INTERPOLER": null, "BUNDKOTE": "20.1", "OPLANDSNAV": null, "EJERNAVN": "HOFOR Spildevand Herlev A/S", "DRIFTANSVA": "HOFOR A/S", "STATUS": "I brug/drift", "KATEGORIAF": "Hovedledning", "TYPEAFLOEB": "Regnvand", "TILLADTILS": "Ingen høring", "BEMAERKNIN": null, "DATOETABLE": null, "DATOHISTOR": null, "STATUSDATO": null, "LOKALITETS": null, "OPRIND_BUN": "Andet ;  ;  ; j.nr.:Plan oplyser", "BEMAERKGEO": null, "TIDLKNUDEN": null, "XKOORDINAT": "713511.4", "YKOORDINAT": "6183882", "OPRIND_KOO": "Andet ;  ;  ; j.nr.:Plan oplyser", "ID": "1280672" }, "geometry": { "type": "Point", "coordinates": [ 713511.400000000023283, 6183882.0 ] } },
{ "type": "Feature", "properties": { "KNUDENAVN": "1000045840", "KNUDETYPE": "Udløb", "INTERPOLER": null, "BUNDKOTE": "28.92", "OPLANDSNAV": null, "EJERNAVN": "HOFOR Spildevand Herlev A/S", "DRIFTANSVA": "HOFOR A/S", "STATUS": "I brug/drift", "KATEGORIAF": "Hovedledning", "TYPEAFLOEB": "Regnvand", "TILLADTILS": "Ingen høring", "BEMAERKNIN": null, "DATOETABLE": null, "DATOHISTOR": null, "STATUSDATO": null, "LOKALITETS": null, "OPRIND_BUN": "Andet ;  ;  ; j.nr.:Plan oplyser", "BEMAERKGEO": null, "TIDLKNUDEN": null, "XKOORDINAT": "713579", "YKOORDINAT": "6183503", "OPRIND_KOO": "Andet ;  ;  ; j.nr.:Plan oplyser", "ID": "1280687" }, "geometry": { "type": "Point", "coordinates": [ 713579.0, 6183503.0 ] } },
{ "type": "Feature", "properties": { "KNUDENAVN": "1000046257", "KNUDETYPE": "Udløb", "INTERPOLER": null, "BUNDKOTE": "12.99", "OPLANDSNAV": "382", "EJERNAVN": "HOFOR Spildevand Herlev A/S", "DRIFTANSVA": "HOFOR A/S", "STATUS": "I brug/drift", "KATEGORIAF": "Hovedledning", "TYPEAFLOEB": "Fælles", "TILLADTILS": "Ejeren skal høres (forsyningen)", "BEMAERKNIN": null, "DATOETABLE": "1938-01-01", "DATOHISTOR": null, "STATUSDATO": "1938-01-01", "LOKALITETS": null, "OPRIND_BUN": "Uoplyst ;  ;  ; j.nr.:Uoplyst 1", "BEMAERKGEO": "Fiktiv Mike Urban diam", "TIDLKNUDEN": null, "XKOORDINAT": "716867.36", "YKOORDINAT": "6180931.15", "OPRIND_KOO": null, "ID": "1281426" }, "geometry": { "type": "Point", "coordinates": [ 716867.355472814990208, 6180931.153691199608147 ] } },
{ "type": "Feature", "properties": { "KNUDENAVN": "1000046266", "KNUDETYPE": "Udløb", "INTERPOLER": null, "BUNDKOTE": "11.7", "OPLANDSNAV": "382", "EJERNAVN": "HOFOR Spildevand Herlev A/S", "DRIFTANSVA": "HOFOR A/S", "STATUS": "I brug/drift", "KATEGORIAF": "Hovedledning", "TYPEAFLOEB": "Fælles", "TILLADTILS": "Ejeren skal høres (forsyningen)", "BEMAERKNIN": null, "DATOETABLE": "1938-01-01", "DATOHISTOR": null, "STATUSDATO": "1938-01-01", "LOKALITETS": null, "OPRIND_BUN": "Uoplyst ;  ;  ; j.nr.:Uoplyst 1", "BEMAERKGEO": "Fiktiv Mike Urban diam", "TIDLKNUDEN": null, "XKOORDINAT": "716863.21", "YKOORDINAT": "6180723.87", "OPRIND_KOO": null, "ID": "1281435" }, "geometry": { "type": "Point", "coordinates": [ 716863.206547074951231, 6180723.873538910411298 ] } },
{ "type": "Feature", "properties": { "KNUDENAVN": "1000047055", "KNUDETYPE": "Udløb", "INTERPOLER": null, "BUNDKOTE": "13.64", "OPLANDSNAV": "382", "EJERNAVN": "HOFOR Spildevand Herlev A/S", "DRIFTANSVA": "HOFOR A/S", "STATUS": "I brug/drift", "KATEGORIAF": "Hovedledning", "TYPEAFLOEB": "Fælles", "TILLADTILS": "Ejeren skal høres (forsyningen)", "BEMAERKNIN": null, "DATOETABLE": null, "DATOHISTOR": null, "STATUSDATO": "1947-10-10", "LOKALITETS": null, "OPRIND_BUN": "Digitaliseret fra kort ;  ; Afløbs planlægningsafdeling tegningssektion ; j.nr.:9003", "BEMAERKGEO": null, "TIDLKNUDEN": null, "XKOORDINAT": "716837.44", "YKOORDINAT": "6181125.22", "OPRIND_KOO": null, "ID": "1282350" }, "geometry": { "type": "Point", "coordinates": [ 716837.437701459974051, 6181125.223461730405688 ] } },
{ "type": "Feature", "properties": { "KNUDENAVN": "1000047062", "KNUDETYPE": "Udløb", "INTERPOLER": null, "BUNDKOTE": "14.74", "OPLANDSNAV": "382", "EJERNAVN": "HOFOR Spildevand Herlev A/S", "DRIFTANSVA": "HOFOR A/S", "STATUS": "I brug/drift", "KATEGORIAF": "Hovedledning", "TYPEAFLOEB": "Fælles", "TILLADTILS": "Ejeren skal høres (forsyningen)", "BEMAERKNIN": null, "DATOETABLE": "1948-04-06", "DATOHISTOR": null, "STATUSDATO": "1947-10-10", "LOKALITETS": null, "OPRIND_BUN": "Digitaliseret fra kort ;  ; Afløbs planlægningsafdeling tegningssektion ; j.nr.:9003", "BEMAERKGEO": null, "TIDLKNUDEN": null, "XKOORDINAT": "716829.37", "YKOORDINAT": "6181271.76", "OPRIND_KOO": null, "ID": "1282357" }, "geometry": { "type": "Point", "coordinates": [ 716829.365417954977602, 6181271.758852549828589 ] } },
{ "type": "Feature", "properties": { "KNUDENAVN": "1000047070", "KNUDETYPE": "Udløb", "INTERPOLER": null, "BUNDKOTE": "-99", "OPLANDSNAV": "382", "EJERNAVN": "HOFOR Spildevand Herlev A/S", "DRIFTANSVA": "HOFOR A/S", "STATUS": "I brug/drift", "KATEGORIAF": "Hovedledning", "TYPEAFLOEB": "Fælles", "TILLADTILS": "Ejeren skal høres (forsyningen)", "BEMAERKNIN": null, "DATOETABLE": "1948-04-07", "DATOHISTOR": null, "STATUSDATO": "1948-04-07", "LOKALITETS": null, "OPRIND_BUN": "Digitaliseret fra kort ;  ; Afløbs planlægningsafdeling tegningssektion ; j.nr.:9003", "BEMAERKGEO": null, "TIDLKNUDEN": null, "XKOORDINAT": "716722.97", "YKOORDINAT": "6181472.55", "OPRIND_KOO": null, "ID": "1282365" }, "geometry": { "type": "Point", "coordinates": [ 716722.968706034007482, 6181472.545070390217006 ] } },
{ "type": "Feature", "properties": { "KNUDENAVN": "1000047118", "KNUDETYPE": "Udløb", "INTERPOLER": null, "BUNDKOTE": "20.37", "OPLANDSNAV": "382", "EJERNAVN": "HOFOR Spildevand Herlev A/S", "DRIFTANSVA": "HOFOR A/S", "STATUS": "I brug/drift", "KATEGORIAF": "Hovedledning", "TYPEAFLOEB": "Fælles", "TILLADTILS": "Ejeren skal høres (forsyningen)", "BEMAERKNIN": null, "DATOETABLE": "1948-04-21", "DATOHISTOR": null, "STATUSDATO": "1948-04-21", "LOKALITETS": null, "OPRIND_BUN": "Digitaliseret fra kort ;  ; Afløbs planlægningsafdeling tegningssektion ; j.nr.:9003", "BEMAERKGEO": null, "TIDLKNUDEN": null, "XKOORDINAT": "716613.94", "YKOORDINAT": "6181773.87", "OPRIND_KOO": "Digitaliseret fra kort ;  ; Afløbs planlægningsafdeling tegningssektion ; j.nr.:9003", "ID": "1282417" }, "geometry": { "type": "Point", "coordinates": [ 716613.941896626027301, 6181773.872297760099173 ] } },
{ "type": "Feature", "properties": { "KNUDENAVN": "1000047190", "KNUDETYPE": "Udløb", "INTERPOLER": null, "BUNDKOTE": "23.32", "OPLANDSNAV": null, "EJERNAVN": "HOFOR Spildevand Herlev A/S", "DRIFTANSVA": "HOFOR A/S", "STATUS": "I brug/drift", "KATEGORIAF": "Hovedledning", "TYPEAFLOEB": "Regnvand", "TILLADTILS": "Ejeren skal høres (betinget af udløbstilladelse)", "BEMAERKNIN": null, "DATOETABLE": "2009-05-20", "DATOHISTOR": null, "STATUSDATO": "2009-05-20", "LOKALITETS": null, "OPRIND_BUN": "Digitaliseret fra kort ;  ;  ; j.nr.:9030", "BEMAERKGEO": "4954", "TIDLKNUDEN": null, "XKOORDINAT": "714108.19", "YKOORDINAT": "6181445.58", "OPRIND_KOO": null, "ID": "1282482" }, "geometry": { "type": "Point", "coordinates": [ 714108.190841075964272, 6181445.577547470107675 ] } },
{ "type": "Feature", "properties": { "KNUDENAVN": "1000063258", "KNUDETYPE": "Udløb", "INTERPOLER": "N", "BUNDKOTE": "19.2", "OPLANDSNAV": null, "EJERNAVN": "HOFOR Spildevand Herlev A/S", "DRIFTANSVA": "HOFOR A/S", "STATUS": "I brug/drift", "KATEGORIAF": "Hovedledning", "TYPEAFLOEB": "Regnvand", "TILLADTILS": "Ejeren skal høres (betinget af udløbstilladelse)", "BEMAERKNIN": "KS 498-2021", "DATOETABLE": "2021-04-06", "DATOHISTOR": null, "STATUSDATO": "2021-08-04", "LOKALITETS": null, "OPRIND_BUN": "Landmåling ; 19-DEC-19 ; Aarsleff A/S - Øst ; j.nr.:Aarsleff A/S  Øst", "BEMAERKGEO": "firk2800x2500B", "TIDLKNUDEN": null, "XKOORDINAT": "716659.39", "YKOORDINAT": "6181688.85", "OPRIND_KOO": "Landmåling ; 19-DEC-19 ; Aarsleff A/S - Øst ; j.nr.:Aarsleff A/S  Øst", "ID": "1395444" }, "geometry": { "type": "Point", "coordinates": [ 716659.39000000001397, 6181688.849999999627471 ] } },
{ "type": "Feature", "properties": { "KNUDENAVN": "1000063263", "KNUDETYPE": "Udløb", "INTERPOLER": "N", "BUNDKOTE": "19.25", "OPLANDSNAV": null, "EJERNAVN": "HOFOR Spildevand Herlev A/S", "DRIFTANSVA": "HOFOR A/S", "STATUS": "I brug/drift", "KATEGORIAF": "Hovedledning", "TYPEAFLOEB": "Regnvand", "TILLADTILS": "Ejeren skal høres (betinget af udløbstilladelse)", "BEMAERKNIN": "KS 512-2021", "DATOETABLE": "2021-04-27", "DATOHISTOR": null, "STATUSDATO": "2021-08-13", "LOKALITETS": null, "OPRIND_BUN": "Landmåling ; 19-DEC-19 ; Aarsleff A/S - Øst ; j.nr.:Aarsleff A/S  Øst", "BEMAERKGEO": "rek2800x2500B", "TIDLKNUDEN": null, "XKOORDINAT": "716652.55", "YKOORDINAT": "6181706.33", "OPRIND_KOO": "Landmåling ; 19-DEC-19 ; Aarsleff A/S - Øst ; j.nr.:Aarsleff A/S  Øst", "ID": "1396347" }, "geometry": { "type": "Point", "coordinates": [ 716652.550000000046566, 6181706.33 ] } },
{ "type": "Feature", "properties": { "KNUDENAVN": "1000084863", "KNUDETYPE": "Udløb", "INTERPOLER": "N", "BUNDKOTE": "23.68", "OPLANDSNAV": null, "EJERNAVN": "HOFOR Spildevand Herlev A/S", "DRIFTANSVA": "HOFOR A/S", "STATUS": "I brug/drift", "KATEGORIAF": "Hovedledning", "TYPEAFLOEB": "Regnvand", "TILLADTILS": "Ingen høring", "BEMAERKNIN": "KS 024-2022", "DATOETABLE": null, "DATOHISTOR": null, "STATUSDATO": null, "LOKALITETS": null, "OPRIND_BUN": null, "BEMAERKGEO": null, "TIDLKNUDEN": null, "XKOORDINAT": "714927.24", "YKOORDINAT": "6183449.24", "OPRIND_KOO": "Landmåling ;  ; Afløbs planlægningsafdeling tegningssektion ; j.nr.:9021", "ID": "1409647" }, "geometry": { "type": "Point", "coordinates": [ 714927.241785658989102, 6183449.243044120259583 ] } },
{ "type": "Feature", "properties": { "KNUDENAVN": "1000084865", "KNUDETYPE": "Udløb", "INTERPOLER": "J", "BUNDKOTE": "23.67", "OPLANDSNAV": null, "EJERNAVN": "HOFOR Spildevand Herlev A/S", "DRIFTANSVA": "HOFOR A/S", "STATUS": "I brug/drift", "KATEGORIAF": "Hovedledning", "TYPEAFLOEB": "Regnvand", "TILLADTILS": "Ingen høring", "BEMAERKNIN": "KS 024-2022", "DATOETABLE": null, "DATOHISTOR": null, "STATUSDATO": null, "LOKALITETS": null, "OPRIND_BUN": "Skønnet ;  ;  ; j.nr.:0", "BEMAERKGEO": null, "TIDLKNUDEN": null, "XKOORDINAT": "714927.16", "YKOORDINAT": "6183450.35", "OPRIND_KOO": "Landmåling ;  ; Afløbs planlægningsafdeling tegningssektion ; j.nr.:9021", "ID": "1409650" }, "geometry": { "type": "Point", "coordinates": [ 714927.156362870009616, 6183450.349632630124688 ] } },
{ "type": "Feature", "properties": { "KNUDENAVN": "1103500", "KNUDETYPE": "Udløb", "INTERPOLER": null, "BUNDKOTE": "9.42", "OPLANDSNAV": "382", "EJERNAVN": "HOFOR Spildevand Herlev A/S", "DRIFTANSVA": "HOFOR A/S", "STATUS": "I brug/drift", "KATEGORIAF": "Hovedledning", "TYPEAFLOEB": "Regnvand", "TILLADTILS": "Ejeren skal høres (forsyningen)", "BEMAERKNIN": "(auto) Vejnavn : Herlev Hovedgade", "DATOETABLE": null, "DATOHISTOR": null, "STATUSDATO": null, "LOKALITETS": null, "OPRIND_BUN": "Digitaliseret fra kort ;  ;  ; j.nr.:9030", "BEMAERKGEO": "Fiktiv Mike Urban diam", "TIDLKNUDEN": null, "XKOORDINAT": "717241.73", "YKOORDINAT": "6179940.15", "OPRIND_KOO": "Digitaliseret fra kort ;  ;  ; j.nr.:9030", "ID": "1137839" }, "geometry": { "type": "Point", "coordinates": [ 717241.728874349966645, 6179940.15107960999012 ] } },
{ "type": "Feature", "properties": { "KNUDENAVN": "1104000", "KNUDETYPE": "Udløb", "INTERPOLER": null, "BUNDKOTE": "9.56", "OPLANDSNAV": "HER_KAGSÅ", "EJERNAVN": "HOFOR Spildevand Herlev A/S", "DRIFTANSVA": "HOFOR A/S", "STATUS": "I brug/drift", "KATEGORIAF": "Hovedledning", "TYPEAFLOEB": "Fælles", "TILLADTILS": "Ejeren skal høres (forsyningen)", "BEMAERKNIN": "\n(auto) Vejnavn : KLOKKEDYBET", "DATOETABLE": "1938-01-01", "DATOHISTOR": null, "STATUSDATO": "1938-01-01", "LOKALITETS": null, "OPRIND_BUN": "Landmåling ;  ; Ukendt ; j.nr.:DAS5--5-0", "BEMAERKGEO": "Fiktiv Mike Urban diam", "TIDLKNUDEN": null, "XKOORDINAT": "717184.14", "YKOORDINAT": "6180129.16", "OPRIND_KOO": "Uoplyst ; 14-JUN-06 ; Ukendt ; j.nr.:DAS5-20060614-0-0", "ID": "1138465" }, "geometry": { "type": "Point", "coordinates": [ 717184.14000000001397, 6180129.160000000149012 ] } },
{ "type": "Feature", "properties": { "KNUDENAVN": "1105000", "KNUDETYPE": "Udløb", "INTERPOLER": null, "BUNDKOTE": "10.18", "OPLANDSNAV": "382", "EJERNAVN": "HOFOR Spildevand Herlev A/S", "DRIFTANSVA": "HOFOR A/S", "STATUS": "I brug/drift", "KATEGORIAF": "Hovedledning", "TYPEAFLOEB": "Fælles", "TILLADTILS": "Ejeren skal høres (forsyningen)", "BEMAERKNIN": "OVERDÆKKET\n(auto) Vejnavn : KAGSÅEN", "DATOETABLE": "1938-01-01", "DATOHISTOR": null, "STATUSDATO": "1938-01-01", "LOKALITETS": null, "OPRIND_BUN": null, "BEMAERKGEO": "Fiktiv Mike Urban diam", "TIDLKNUDEN": null, "XKOORDINAT": "716998.23", "YKOORDINAT": "6180458.22", "OPRIND_KOO": "Skønnet ; 14-JUN-06 ; Ukendt ; j.nr.:DAS5-20060614-1-0", "ID": "1138487" }, "geometry": { "type": "Point", "coordinates": [ 716998.228604568052106, 6180458.21913412027061 ] } },
{ "type": "Feature", "properties": { "KNUDENAVN": "1116000", "KNUDETYPE": "Udløb", "INTERPOLER": null, "BUNDKOTE": "21.26", "OPLANDSNAV": "HER_KAGSÅ", "EJERNAVN": "HOFOR Spildevand Herlev A/S", "DRIFTANSVA": "HOFOR A/S", "STATUS": "I brug/drift", "KATEGORIAF": "Hovedledning", "TYPEAFLOEB": "Fælles", "TILLADTILS": "Ejeren skal høres (forsyningen)", "BEMAERKNIN": null, "DATOETABLE": "1948-01-01", "DATOHISTOR": null, "STATUSDATO": "1948-01-01", "LOKALITETS": null, "OPRIND_BUN": "Landmåling ; 16-APR-12 ; Landinspektørfirmaet LE34 ; j.nr.:LE34-2012-04-20", "BEMAERKGEO": null, "TIDLKNUDEN": null, "XKOORDINAT": "716501.44", "YKOORDINAT": "6182061.33", "OPRIND_KOO": "Landmåling ; 16-APR-12 ; Landinspektørfirmaet LE34 ; j.nr.:LE34-2012-04-20", "ID": "1143915" }, "geometry": { "type": "Point", "coordinates": [ 716501.439999999944121, 6182061.33 ] } },
{ "type": "Feature", "properties": { "KNUDENAVN": "1117000", "KNUDETYPE": "Udløb", "INTERPOLER": null, "BUNDKOTE": "21.28", "OPLANDSNAV": "HER_KAGSÅ", "EJERNAVN": "HOFOR Spildevand Herlev A/S", "DRIFTANSVA": "HOFOR A/S", "STATUS": "I brug/drift", "KATEGORIAF": "Hovedledning", "TYPEAFLOEB": "Fælles", "TILLADTILS": "Ejeren skal høres (forsyningen)", "BEMAERKNIN": "\n(auto) Vejnavn : Langdyssen", "DATOETABLE": "1948-01-01", "DATOHISTOR": null, "STATUSDATO": "2048-01-01", "LOKALITETS": null, "OPRIND_BUN": null, "BEMAERKGEO": "Fiktiv Mike Urban diam", "TIDLKNUDEN": null, "XKOORDINAT": "716464.87", "YKOORDINAT": "6182230.85", "OPRIND_KOO": "Uoplyst ; 26-JUL-10 ; Ukendt ; j.nr.:DAS5-20100726-0-0", "ID": "1138315" }, "geometry": { "type": "Point", "coordinates": [ 716464.87, 6182230.849999999627471 ] } },
{ "type": "Feature", "properties": { "KNUDENAVN": "1118000", "KNUDETYPE": "Udløb", "INTERPOLER": null, "BUNDKOTE": "22.2", "OPLANDSNAV": "HER_KAGSÅ", "EJERNAVN": "HOFOR Spildevand Herlev A/S", "DRIFTANSVA": "HOFOR A/S", "STATUS": "I brug/drift", "KATEGORIAF": "Hovedledning", "TYPEAFLOEB": "Fælles", "TILLADTILS": "Ejeren skal høres (forsyningen)", "BEMAERKNIN": "\n(auto) Vejnavn : Langdyssen", "DATOETABLE": "1948-04-15", "DATOHISTOR": null, "STATUSDATO": "1948-04-15", "LOKALITETS": null, "OPRIND_BUN": "Landmåling ;  ; Ukendt ; j.nr.:DAS5--5-0", "BEMAERKGEO": "Fiktiv Mike Urban diam", "TIDLKNUDEN": null, "XKOORDINAT": "716387.87", "YKOORDINAT": "6182356.81", "OPRIND_KOO": "Skønnet ; 14-JUN-06 ; Ukendt ; j.nr.:DAS5-20060614-1-0", "ID": "1138334" }, "geometry": { "type": "Point", "coordinates": [ 716387.87, 6182356.809999999590218 ] } },
{ "type": "Feature", "properties": { "KNUDENAVN": "381800", "KNUDETYPE": "Udløb", "INTERPOLER": null, "BUNDKOTE": "8.99", "OPLANDSNAV": "381", "EJERNAVN": "HOFOR Spildevand København A/S", "DRIFTANSVA": "HOFOR A/S", "STATUS": "I brug/drift", "KATEGORIAF": "Hovedledning", "TYPEAFLOEB": "Fælles", "TILLADTILS": "Ejeren skal høres (betinget af udløbstilladelse)", "BEMAERKNIN": "QA21S4; Tinglyst: 3531 HU 17.01.1956 sikret 3x3m", "DATOETABLE": "1955-01-01", "DATOHISTOR": null, "STATUSDATO": null, "LOKALITETS": "ÅFLØJEN", "OPRIND_BUN": null, "BEMAERKGEO": "Fiktiv Mike Urban diam", "TIDLKNUDEN": null, "XKOORDINAT": "717178.66", "YKOORDINAT": "6179692.06", "OPRIND_KOO": "Digitaliseret fra kort ;  ; Afløbs planlægningsafdeling tegningssektion ; j.nr.:9003", "ID": "727655" }, "geometry": { "type": "Point", "coordinates": [ 717178.65500000002794, 6179692.05599999986589 ] } },
{ "type": "Feature", "properties": { "KNUDENAVN": "381803", "KNUDETYPE": "Udløb", "INTERPOLER": null, "BUNDKOTE": "9", "OPLANDSNAV": "381", "EJERNAVN": "HOFOR Spildevand København A/S", "DRIFTANSVA": "HOFOR A/S", "STATUS": "I brug/drift", "KATEGORIAF": "Afskærende ledning", "TYPEAFLOEB": "Fælles", "TILLADTILS": "Ejeren skal høres (forsyningen)", "BEMAERKNIN": "QA21S3; Tinglyst: 3574 HU 23.06.1961 sikret 3x3m", "DATOETABLE": "1959-06-01", "DATOHISTOR": null, "STATUSDATO": null, "LOKALITETS": "ÅFLØJEN", "OPRIND_BUN": null, "BEMAERKGEO": "Fiktiv Mike Urban diam", "TIDLKNUDEN": null, "XKOORDINAT": "717219.04", "YKOORDINAT": "6179803.23", "OPRIND_KOO": "Digitaliseret fra kort ;  ; Afløbs planlægningsafdeling tegningssektion ; j.nr.:9003", "ID": "727395" }, "geometry": { "type": "Point", "coordinates": [ 717219.035000000032596, 6179803.227 ] } },
{ "type": "Feature", "properties": { "KNUDENAVN": "4000003", "KNUDETYPE": "Udløb", "INTERPOLER": null, "BUNDKOTE": "9.73", "OPLANDSNAV": "HER_HERVEST", "EJERNAVN": "HOFOR Spildevand Herlev A/S", "DRIFTANSVA": "HOFOR A/S", "STATUS": "I brug/drift", "KATEGORIAF": "Hovedledning", "TYPEAFLOEB": "Regnvand", "TILLADTILS": "Ingen høring", "BEMAERKNIN": "SCTASK0110806, UDLØB I Å\n(auto) Vejnavn : Marielundvej", "DATOETABLE": "1945-01-01", "DATOHISTOR": null, "STATUSDATO": "1945-01-01", "LOKALITETS": null, "OPRIND_BUN": "Landmåling ;  ; Ukendt ; j.nr.:DAS5--5-0", "BEMAERKGEO": null, "TIDLKNUDEN": null, "XKOORDINAT": "715344", "YKOORDINAT": "6180046.84", "OPRIND_KOO": "Andet ; 14-JUN-06 ; Ukendt ; j.nr.:DAS5-20060614-50-0", "ID": "1142064" }, "geometry": { "type": "Point", "coordinates": [ 715344.0, 6180046.839999999850988 ] } },
{ "type": "Feature", "properties": { "KNUDENAVN": "4000004", "KNUDETYPE": "Udløb", "INTERPOLER": null, "BUNDKOTE": "9.73", "OPLANDSNAV": null, "EJERNAVN": "HOFOR Spildevand Herlev A/S", "DRIFTANSVA": "HOFOR A/S", "STATUS": "I brug/drift", "KATEGORIAF": "Hovedledning", "TYPEAFLOEB": "Regnvand", "TILLADTILS": "Ingen høring", "BEMAERKNIN": "SCTASK0110806, UDLØB I Å, UNDER VEJ, IKKE SYNLIG\n(auto) Vejnavn : Marielundvej", "DATOETABLE": "1945-01-01", "DATOHISTOR": null, "STATUSDATO": "1945-01-01", "LOKALITETS": null, "OPRIND_BUN": null, "BEMAERKGEO": null, "TIDLKNUDEN": null, "XKOORDINAT": "715350.48", "YKOORDINAT": "6180046.18", "OPRIND_KOO": "Andet ; 14-JUN-06 ; Ukendt ; j.nr.:DAS5-20060614-50-0", "ID": "1142065" }, "geometry": { "type": "Point", "coordinates": [ 715350.479923289967701, 6180046.184819590300322 ] } },
{ "type": "Feature", "properties": { "KNUDENAVN": "4000006", "KNUDETYPE": "Udløb", "INTERPOLER": null, "BUNDKOTE": "10.49", "OPLANDSNAV": null, "EJERNAVN": "HOFOR Spildevand Herlev A/S", "DRIFTANSVA": "HOFOR A/S", "STATUS": "I brug/drift", "KATEGORIAF": "Hovedledning", "TYPEAFLOEB": "Regnvand", "TILLADTILS": "Ingen høring", "BEMAERKNIN": "SCTASK0110806", "DATOETABLE": "1949-01-01", "DATOHISTOR": null, "STATUSDATO": "1949-01-01", "LOKALITETS": null, "OPRIND_BUN": "Landmåling ;  ; Ukendt ; j.nr.:DAS5--5-0", "BEMAERKGEO": null, "TIDLKNUDEN": null, "XKOORDINAT": "715543.99", "YKOORDINAT": "6180033.48", "OPRIND_KOO": "Uoplyst ; 14-JUN-06 ; Ukendt ; j.nr.:DAS5-20060614-0-0", "ID": "1142067" }, "geometry": { "type": "Point", "coordinates": [ 715543.985382891027257, 6180033.481780800037086 ] } },
{ "type": "Feature", "properties": { "KNUDENAVN": "4300000", "KNUDETYPE": "Udløb", "INTERPOLER": null, "BUNDKOTE": "14.2", "OPLANDSNAV": null, "EJERNAVN": "HOFOR Spildevand Herlev A/S", "DRIFTANSVA": "HOFOR A/S", "STATUS": "I brug/drift", "KATEGORIAF": "Hovedledning", "TYPEAFLOEB": "Regnvand", "TILLADTILS": "Ejeren skal høres (betinget af udløbstilladelse)", "BEMAERKNIN": null, "DATOETABLE": "1964-01-01", "DATOHISTOR": null, "STATUSDATO": "1964-01-01", "LOKALITETS": null, "OPRIND_BUN": "Digitaliseret fra kort ; 23-NOV-09 ; Ukendt ; j.nr.:DC56", "BEMAERKGEO": null, "TIDLKNUDEN": null, "XKOORDINAT": "713986.89", "YKOORDINAT": "6181483.64", "OPRIND_KOO": "Uoplyst ; 14-JUN-06 ; Ukendt ; j.nr.:DAS5-20060614-0-0", "ID": "1140894" }, "geometry": { "type": "Point", "coordinates": [ 713986.889790300047025, 6181483.636512470431626 ] } },
{ "type": "Feature", "properties": { "KNUDENAVN": "4302000", "KNUDETYPE": "Udløb", "INTERPOLER": null, "BUNDKOTE": "8.39", "OPLANDSNAV": "HER_HERVEST", "EJERNAVN": "HOFOR Spildevand Herlev A/S", "DRIFTANSVA": "HOFOR A/S", "STATUS": "I brug/drift", "KATEGORIAF": "Hovedledning", "TYPEAFLOEB": "Regnvand", "TILLADTILS": "Ejeren skal høres (forsyningen)", "BEMAERKNIN": "\n(auto) Vejnavn : Mileparken", "DATOETABLE": "1949-01-01", "DATOHISTOR": null, "STATUSDATO": null, "LOKALITETS": null, "OPRIND_BUN": "Landmåling ;  ; Ukendt ; j.nr.:DAS5--5-0", "BEMAERKGEO": "Fiktiv Mike Urban diam", "TIDLKNUDEN": null, "XKOORDINAT": "715191.59", "YKOORDINAT": "6179839.86", "OPRIND_KOO": "Andet ; 14-JUN-06 ; Ukendt ; j.nr.:DAS5-20060614-50-0", "ID": "1142102" }, "geometry": { "type": "Point", "coordinates": [ 715191.589999999967404, 6179839.860000000335276 ] } },
{ "type": "Feature", "properties": { "KNUDENAVN": "4302104", "KNUDETYPE": "Udløb", "INTERPOLER": null, "BUNDKOTE": "8.42", "OPLANDSNAV": "HER_UKENDT", "EJERNAVN": "HOFOR Spildevand Herlev A/S", "DRIFTANSVA": "HOFOR A/S", "STATUS": "I brug/drift", "KATEGORIAF": "Hovedledning", "TYPEAFLOEB": "Regnvand", "TILLADTILS": "Ejeren skal høres (forsyningen)", "BEMAERKNIN": null, "DATOETABLE": "2009-01-01", "DATOHISTOR": null, "STATUSDATO": null, "LOKALITETS": null, "OPRIND_BUN": "Andet ; 13-OCT-10 ; Ukendt ; j.nr.:DAS5-20101013-50-0", "BEMAERKGEO": null, "TIDLKNUDEN": null, "XKOORDINAT": "715195.09", "YKOORDINAT": "6179887.1", "OPRIND_KOO": "Uoplyst ; 13-OCT-10 ; Ukendt ; j.nr.:DAS5-20101013-0-0", "ID": "1142318" }, "geometry": { "type": "Point", "coordinates": [ 715195.089999999967404, 6179887.099999999627471 ] } },
{ "type": "Feature", "properties": { "KNUDENAVN": "4302106", "KNUDETYPE": "Udløb", "INTERPOLER": null, "BUNDKOTE": "8.36", "OPLANDSNAV": "HER_UKENDT", "EJERNAVN": "HOFOR Spildevand Herlev A/S", "DRIFTANSVA": "HOFOR A/S", "STATUS": "I brug/drift", "KATEGORIAF": "Hovedledning", "TYPEAFLOEB": "Regnvand", "TILLADTILS": "Ejeren skal høres (forsyningen)", "BEMAERKNIN": null, "DATOETABLE": "2009-01-01", "DATOHISTOR": null, "STATUSDATO": null, "LOKALITETS": null, "OPRIND_BUN": "Andet ; 13-OCT-10 ; Ukendt ; j.nr.:DAS5-20101013-50-0", "BEMAERKGEO": null, "TIDLKNUDEN": null, "XKOORDINAT": "715195.71", "YKOORDINAT": "6179881.55", "OPRIND_KOO": "Uoplyst ; 13-OCT-10 ; Ukendt ; j.nr.:DAS5-20101013-0-0", "ID": "1142321" }, "geometry": { "type": "Point", "coordinates": [ 715195.709999999962747, 6179881.549999999813735 ] } },
{ "type": "Feature", "properties": { "KNUDENAVN": "4304000", "KNUDETYPE": "Udløb", "INTERPOLER": null, "BUNDKOTE": "9.48", "OPLANDSNAV": "HER_HER.VEST", "EJERNAVN": "HOFOR Spildevand Herlev A/S", "DRIFTANSVA": "HOFOR A/S", "STATUS": "I brug/drift", "KATEGORIAF": "Hovedledning", "TYPEAFLOEB": "Regnvand", "TILLADTILS": "Ejeren skal høres (betinget af udløbstilladelse)", "BEMAERKNIN": "\n(auto) Vejnavn : Knapholm", "DATOETABLE": "1945-01-01", "DATOHISTOR": null, "STATUSDATO": null, "LOKALITETS": null, "OPRIND_BUN": null, "BEMAERKGEO": "Fiktiv Mike Urban diam", "TIDLKNUDEN": null, "XKOORDINAT": "715085.35", "YKOORDINAT": "6180115.45", "OPRIND_KOO": "Andet ; 14-JUN-06 ; Ukendt ; j.nr.:DAS5-20060614-50-0", "ID": "1142155" }, "geometry": { "type": "Point", "coordinates": [ 715085.349999999976717, 6180115.450000000186265 ] } },
{ "type": "Feature", "properties": { "KNUDENAVN": "4305000", "KNUDETYPE": "Udløb", "INTERPOLER": null, "BUNDKOTE": "16.22", "OPLANDSNAV": "HER_HER.VEST", "EJERNAVN": "HOFOR Spildevand Herlev A/S", "DRIFTANSVA": "HOFOR A/S", "STATUS": "I brug/drift", "KATEGORIAF": "Hovedledning", "TYPEAFLOEB": "Regnvand", "TILLADTILS": "Ingen høring", "BEMAERKNIN": "\n(auto) Vejnavn : Smedeholm", "DATOETABLE": "1949-01-01", "DATOHISTOR": null, "STATUSDATO": "1949-01-01", "LOKALITETS": null, "OPRIND_BUN": "Landmåling ;  ; Ukendt ; j.nr.:DAS5--5-0", "BEMAERKGEO": "Fiktiv Mike Urban diam", "TIDLKNUDEN": null, "XKOORDINAT": "714732.52", "YKOORDINAT": "6180498.82", "OPRIND_KOO": "Andet ; 29-NOV-06 ; Ukendt ; j.nr.:DAS5-20061129-50-0", "ID": "1142165" }, "geometry": { "type": "Point", "coordinates": [ 714732.520000000018626, 6180498.820000000298023 ] } },
{ "type": "Feature", "properties": { "KNUDENAVN": "4306000", "KNUDETYPE": "Udløb", "INTERPOLER": null, "BUNDKOTE": "16.52", "OPLANDSNAV": "HER_HERVEST", "EJERNAVN": "HOFOR Spildevand Herlev A/S", "DRIFTANSVA": "HOFOR A/S", "STATUS": "I brug/drift", "KATEGORIAF": "Hovedledning", "TYPEAFLOEB": "Regnvand", "TILLADTILS": "Ejeren skal høres (betinget af udløbstilladelse)", "BEMAERKNIN": "\n(auto) Vejnavn : Vesterlundvej", "DATOETABLE": "1949-01-01", "DATOHISTOR": null, "STATUSDATO": "1949-01-01", "LOKALITETS": null, "OPRIND_BUN": "Landmåling ;  ; Ukendt ; j.nr.:DAS5--5-0", "BEMAERKGEO": "Fiktiv Mike Urban diam", "TIDLKNUDEN": null, "XKOORDINAT": "714725.5", "YKOORDINAT": "6180553.93", "OPRIND_KOO": "Andet ; 14-JUN-06 ; Ukendt ; j.nr.:DAS5-20060614-50-0", "ID": "1142134" }, "geometry": { "type": "Point", "coordinates": [ 714725.5, 6180553.929999999701977 ] } },
{ "type": "Feature", "properties": { "KNUDENAVN": "4306019", "KNUDETYPE": "Udløb", "INTERPOLER": null, "BUNDKOTE": "17.52", "OPLANDSNAV": "HER_HER.VEST", "EJERNAVN": "HOFOR Spildevand Herlev A/S", "DRIFTANSVA": "HOFOR A/S", "STATUS": "I brug/drift", "KATEGORIAF": "Hovedledning", "TYPEAFLOEB": "Regnvand", "TILLADTILS": "Ingen høring", "BEMAERKNIN": "\n(auto) Vejnavn : Vesterlundvej", "DATOETABLE": "1919-01-01", "DATOHISTOR": null, "STATUSDATO": null, "LOKALITETS": null, "OPRIND_BUN": "Landmåling ;  ; Ukendt ; j.nr.:DAS5--5-0", "BEMAERKGEO": "Fiktiv Mike Urban diam", "TIDLKNUDEN": null, "XKOORDINAT": "714638.61", "YKOORDINAT": "6180564.59", "OPRIND_KOO": "Andet ; 14-JUN-06 ; Ukendt ; j.nr.:DAS5-20060614-50-0", "ID": "1142136" }, "geometry": { "type": "Point", "coordinates": [ 714638.60999999998603, 6180564.589999999850988 ] } },
{ "type": "Feature", "properties": { "KNUDENAVN": "4308000", "KNUDETYPE": "Udløb", "INTERPOLER": null, "BUNDKOTE": "20.08", "OPLANDSNAV": "HER_HER.VEST", "EJERNAVN": "HOFOR Spildevand Herlev A/S", "DRIFTANSVA": "HOFOR A/S", "STATUS": "I brug/drift", "KATEGORIAF": "Hovedledning", "TYPEAFLOEB": "Regnvand", "TILLADTILS": "Ingen høring", "BEMAERKNIN": "\n(auto) Vejnavn : Tv'rdiget", "DATOETABLE": "1968-01-01", "DATOHISTOR": null, "STATUSDATO": null, "LOKALITETS": null, "OPRIND_BUN": "Landmåling ; 18-MAR-11 ; Ukendt ; j.nr.:DAS5-20110318-5-0", "BEMAERKGEO": "Fiktiv Mike Urban diam", "TIDLKNUDEN": null, "XKOORDINAT": "714388.8", "YKOORDINAT": "6180900.92", "OPRIND_KOO": "Andet ; 27-JUL-10 ; Ukendt ; j.nr.:DAS5-20100727-50-0", "ID": "1142287" }, "geometry": { "type": "Point", "coordinates": [ 714388.800000000046566, 6180900.92 ] } },
{ "type": "Feature", "properties": { "KNUDENAVN": "4309000", "KNUDETYPE": "Udløb", "INTERPOLER": null, "BUNDKOTE": "20.89", "OPLANDSNAV": "HER_HER.VEST", "EJERNAVN": "HOFOR Spildevand Herlev A/S", "DRIFTANSVA": "HOFOR A/S", "STATUS": "I brug/drift", "KATEGORIAF": "Hovedledning", "TYPEAFLOEB": "Regnvand", "TILLADTILS": "Ingen høring", "BEMAERKNIN": "\n(auto) Vejnavn : Ålbrobuen", "DATOETABLE": "1958-01-01", "DATOHISTOR": null, "STATUSDATO": null, "LOKALITETS": null, "OPRIND_BUN": "Landmåling ;  ; Ukendt ; j.nr.:DAS5--5-0", "BEMAERKGEO": "Fiktiv Mike Urban diam", "TIDLKNUDEN": null, "XKOORDINAT": "714341.43", "YKOORDINAT": "6181008.39", "OPRIND_KOO": "Uoplyst ; 14-JUN-06 ; Ukendt ; j.nr.:DAS5-20060614-0-0", "ID": "1141791" }, "geometry": { "type": "Point", "coordinates": [ 714341.430000000051223, 6181008.389999999664724 ] } },
{ "type": "Feature", "properties": { "KNUDENAVN": "4310000", "KNUDETYPE": "Udløb", "INTERPOLER": null, "BUNDKOTE": "21.96", "OPLANDSNAV": "HER_HER.VEST", "EJERNAVN": "HOFOR Spildevand Herlev A/S", "DRIFTANSVA": "HOFOR A/S", "STATUS": "I brug/drift", "KATEGORIAF": "Hovedledning", "TYPEAFLOEB": "Regnvand", "TILLADTILS": "Ingen høring", "BEMAERKNIN": "\n(auto) Vejnavn : Sønderskovvej", "DATOETABLE": "1958-01-01", "DATOHISTOR": null, "STATUSDATO": null, "LOKALITETS": null, "OPRIND_BUN": "Landmåling ;  ; Ukendt ; j.nr.:DAS5--5-0", "BEMAERKGEO": null, "TIDLKNUDEN": null, "XKOORDINAT": "714270.94", "YKOORDINAT": "6181074.06", "OPRIND_KOO": "Uoplyst ; 14-JUN-06 ; Ukendt ; j.nr.:DAS5-20060614-0-0", "ID": "1141810" }, "geometry": { "type": "Point", "coordinates": [ 714270.939999999944121, 6181074.059999999590218 ] } },
{ "type": "Feature", "properties": { "KNUDENAVN": "4319000", "KNUDETYPE": "Udløb", "INTERPOLER": null, "BUNDKOTE": "22.13", "OPLANDSNAV": "HER_HER.VEST", "EJERNAVN": "HOFOR Spildevand Herlev A/S", "DRIFTANSVA": "HOFOR A/S", "STATUS": "I brug/drift", "KATEGORIAF": "Hovedledning", "TYPEAFLOEB": "Regnvand", "TILLADTILS": "Ingen høring", "BEMAERKNIN": "\n(auto) Vejnavn : Ålbrosvinget, Herlev", "DATOETABLE": "1955-01-01", "DATOHISTOR": null, "STATUSDATO": null, "LOKALITETS": null, "OPRIND_BUN": "Landmåling ;  ; Ukendt ; j.nr.:DAS5--5-0", "BEMAERKGEO": null, "TIDLKNUDEN": null, "XKOORDINAT": "714021.42", "YKOORDINAT": "6181206.88", "OPRIND_KOO": "Uoplyst ; 14-JUN-06 ; Ukendt ; j.nr.:DAS5-20060614-0-0", "ID": "1141879" }, "geometry": { "type": "Point", "coordinates": [ 714021.42000000004191, 6181206.879999999888241 ] } },
{ "type": "Feature", "properties": { "KNUDENAVN": "4321000", "KNUDETYPE": "Udløb", "INTERPOLER": null, "BUNDKOTE": "8.06", "OPLANDSNAV": "HER_HERVEST", "EJERNAVN": "HOFOR Spildevand Herlev A/S", "DRIFTANSVA": "HOFOR A/S", "STATUS": "I brug/drift", "KATEGORIAF": "Hovedledning", "TYPEAFLOEB": "Regnvand", "TILLADTILS": "Ejeren skal høres (betinget af udløbstilladelse)", "BEMAERKNIN": "\n(auto) Vejnavn : Marielundsvej", "DATOETABLE": "1945-01-01", "DATOHISTOR": null, "STATUSDATO": "1945-01-01", "LOKALITETS": null, "OPRIND_BUN": null, "BEMAERKGEO": "Fiktiv Mike Urban diam", "TIDLKNUDEN": null, "XKOORDINAT": "715172.28", "YKOORDINAT": "6179536.04", "OPRIND_KOO": "Andet ; 14-JUN-06 ; Ukendt ; j.nr.:DAS5-20060614-50-0", "ID": "1142139" }, "geometry": { "type": "Point", "coordinates": [ 715172.28000000002794, 6179536.04 ] } },
{ "type": "Feature", "properties": { "KNUDENAVN": "5107000", "KNUDETYPE": "Udløb", "INTERPOLER": null, "BUNDKOTE": "-99", "OPLANDSNAV": "HER_KAGSÅ", "EJERNAVN": "HOFOR Spildevand Herlev A/S", "DRIFTANSVA": "HOFOR A/S", "STATUS": "I brug/drift", "KATEGORIAF": "Hovedledning", "TYPEAFLOEB": "Fælles", "TILLADTILS": "Ejeren skal høres (forsyningen)", "BEMAERKNIN": "\n(auto) Vejnavn : Snetippen", "DATOETABLE": "1967-01-01", "DATOHISTOR": null, "STATUSDATO": "1967-01-01", "LOKALITETS": null, "OPRIND_BUN": null, "BEMAERKGEO": "Terrænkote taget fra digital højdemodel", "TIDLKNUDEN": null, "XKOORDINAT": "716831.97", "YKOORDINAT": "6180994.02", "OPRIND_KOO": "Digitaliseret fra kort ; 14-JUN-06 ; Ukendt ; j.nr.:DAS5-20060614-3-0", "ID": "1138358" }, "geometry": { "type": "Point", "coordinates": [ 716831.96999999997206, 6180994.019999999552965 ] } },
{ "type": "Feature", "properties": { "KNUDENAVN": "5500000", "KNUDETYPE": "Udløb", "INTERPOLER": null, "BUNDKOTE": "22.54", "OPLANDSNAV": "HER_UKENDT", "EJERNAVN": "HOFOR Spildevand Herlev A/S", "DRIFTANSVA": "HOFOR A/S", "STATUS": "I brug/drift", "KATEGORIAF": "Hovedledning", "TYPEAFLOEB": "Regnvand", "TILLADTILS": "Ingen høring", "BEMAERKNIN": "\n(auto) Vejnavn : Vestvej", "DATOETABLE": "1975-01-01", "DATOHISTOR": null, "STATUSDATO": null, "LOKALITETS": null, "OPRIND_BUN": "Digitaliseret fra kort ; 20-NOV-00 ; Ukendt ; j.nr.:DAS5-20001120-3-0", "BEMAERKGEO": "Fiktiv Mike Urban diam", "TIDLKNUDEN": null, "XKOORDINAT": "716268.08", "YKOORDINAT": "6182742.72", "OPRIND_KOO": "Uoplyst ; 14-JUN-06 ; Ukendt ; j.nr.:DAS5-20060614-0-0", "ID": "1138547" }, "geometry": { "type": "Point", "coordinates": [ 716268.07999999995809, 6182742.71999999973923 ] } },
{ "type": "Feature", "properties": { "KNUDENAVN": "5699001", "KNUDETYPE": "Udløb", "INTERPOLER": "N", "BUNDKOTE": "-99", "OPLANDSNAV": "HER_UKENDT", "EJERNAVN": "HOFOR Spildevand Herlev A/S", "DRIFTANSVA": "HOFOR A/S", "STATUS": "I brug/drift", "KATEGORIAF": "Hovedledning", "TYPEAFLOEB": "Regnvand", "TILLADTILS": "Ingen høring", "BEMAERKNIN": null, "DATOETABLE": "1977-01-01", "DATOHISTOR": null, "STATUSDATO": null, "LOKALITETS": null, "OPRIND_BUN": "Landmåling ; 21-FEB-12 ; Landmålergården I/S ; j.nr.:DC76", "BEMAERKGEO": "Fiktiv Mike Urban diam", "TIDLKNUDEN": null, "XKOORDINAT": "716275.48", "YKOORDINAT": "6183214.96", "OPRIND_KOO": "Landmåling ; 21-FEB-12 ; Landmålergården I/S ; j.nr.:DC76", "ID": "1142477" }, "geometry": { "type": "Point", "coordinates": [ 716275.479999999981374, 6183214.96 ] } },
{ "type": "Feature", "properties": { "KNUDENAVN": "6000000", "KNUDETYPE": "Udløb", "INTERPOLER": null, "BUNDKOTE": "20.46", "OPLANDSNAV": "HER_VÆREBRO", "EJERNAVN": "HOFOR Spildevand Herlev A/S", "DRIFTANSVA": "HOFOR A/S", "STATUS": "I brug/drift", "KATEGORIAF": "Hovedledning", "TYPEAFLOEB": "Regnvand", "TILLADTILS": "Ejeren skal høres (forsyningen)", "BEMAERKNIN": "\n(auto) Vejnavn : V/Gammelgårdsvej", "DATOETABLE": "1964-01-01", "DATOHISTOR": null, "STATUSDATO": null, "LOKALITETS": null, "OPRIND_BUN": null, "BEMAERKGEO": "Fiktiv Mike Urban diam", "TIDLKNUDEN": null, "XKOORDINAT": "714501.97", "YKOORDINAT": "6183884.89", "OPRIND_KOO": "Skønnet ; 11-MAR-10 ; Ukendt ; j.nr.:DAS5-20100311-1-0", "ID": "1138955" }, "geometry": { "type": "Point", "coordinates": [ 714501.96999999997206, 6183884.889999999664724 ] } },
{ "type": "Feature", "properties": { "KNUDENAVN": "6702000", "KNUDETYPE": "Udløb", "INTERPOLER": null, "BUNDKOTE": "18.88", "OPLANDSNAV": "HER_VÆREBRO", "EJERNAVN": "HOFOR Spildevand Herlev A/S", "DRIFTANSVA": "HOFOR A/S", "STATUS": "I brug/drift", "KATEGORIAF": "Hovedledning", "TYPEAFLOEB": "Regnvand", "TILLADTILS": "Ejeren skal høres (forsyningen)", "BEMAERKNIN": "\n(auto) Vejnavn : Kringholmen 18", "DATOETABLE": "1966-01-01", "DATOHISTOR": null, "STATUSDATO": "1966-01-01", "LOKALITETS": null, "OPRIND_BUN": null, "BEMAERKGEO": "Fiktiv Mike Urban diam", "TIDLKNUDEN": null, "XKOORDINAT": "713440.77", "YKOORDINAT": "6184013.07", "OPRIND_KOO": "Skønnet ; 14-JUN-06 ; Ukendt ; j.nr.:DAS5-20060614-1-0", "ID": "1138987" }, "geometry": { "type": "Point", "coordinates": [ 713440.770000000018626, 6184013.070000000298023 ] } },
{ "type": "Feature", "properties": { "KNUDENAVN": "6703000", "KNUDETYPE": "Udløb", "INTERPOLER": null, "BUNDKOTE": "18.92", "OPLANDSNAV": "HER_VÆREBRO", "EJERNAVN": "HOFOR Spildevand Herlev A/S", "DRIFTANSVA": "HOFOR A/S", "STATUS": "I brug/drift", "KATEGORIAF": "Hovedledning", "TYPEAFLOEB": "Regnvand", "TILLADTILS": "Ejeren skal høres (forsyningen)", "BEMAERKNIN": "\n(auto) Vejnavn : Åfaldet", "DATOETABLE": "1966-01-01", "DATOHISTOR": null, "STATUSDATO": "1966-01-01", "LOKALITETS": null, "OPRIND_BUN": null, "BEMAERKGEO": "Fiktiv Mike Urban diam", "TIDLKNUDEN": null, "XKOORDINAT": "713484.08", "YKOORDINAT": "6183920.77", "OPRIND_KOO": "Skønnet ; 14-JUN-06 ; Ukendt ; j.nr.:DAS5-20060614-1-0", "ID": "1139003" }, "geometry": { "type": "Point", "coordinates": [ 713484.07999999995809, 6183920.769999999552965 ] } },
{ "type": "Feature", "properties": { "KNUDENAVN": "6707000", "KNUDETYPE": "Udløb", "INTERPOLER": null, "BUNDKOTE": "21.18", "OPLANDSNAV": "HER_VÆREBRO", "EJERNAVN": "HOFOR Spildevand Herlev A/S", "DRIFTANSVA": "HOFOR A/S", "STATUS": "I brug/drift", "KATEGORIAF": "Hovedledning", "TYPEAFLOEB": "Regnvand", "TILLADTILS": "Ejeren skal høres (forsyningen)", "BEMAERKNIN": "ÅBEN GRØFT\n(auto) Vejnavn : V/Tibbevangen", "DATOETABLE": "1965-01-01", "DATOHISTOR": null, "STATUSDATO": "1965-01-01", "LOKALITETS": null, "OPRIND_BUN": "Uoplyst ; 18-AUG-00 ; Ukendt ; j.nr.:DAS5-20000818-0-0", "BEMAERKGEO": "Fiktiv Mike Urban diam", "TIDLKNUDEN": null, "XKOORDINAT": "714186.89", "YKOORDINAT": "6183389.14", "OPRIND_KOO": "Skønnet ; 14-JUN-06 ; Ukendt ; j.nr.:DAS5-20060614-1-0", "ID": "1139044" }, "geometry": { "type": "Point", "coordinates": [ 714186.89000000001397, 6183389.139999999664724 ] } },
{ "type": "Feature", "properties": { "KNUDENAVN": "670BAS3", "KNUDETYPE": "Udløb", "INTERPOLER": null, "BUNDKOTE": "27.5", "OPLANDSNAV": null, "EJERNAVN": "HOFOR Spildevand Herlev A/S", "DRIFTANSVA": "HOFOR A/S", "STATUS": "I brug/drift", "KATEGORIAF": "Hovedledning", "TYPEAFLOEB": "Regnvand", "TILLADTILS": "Ejeren skal høres (betinget af udløbstilladelse)", "BEMAERKNIN": "Vandspejlskote 27,80 DVR90 Indløb", "DATOETABLE": null, "DATOHISTOR": null, "STATUSDATO": "2011-07-01", "LOKALITETS": null, "OPRIND_BUN": "Landmåling ;  ; Afløbs planlægningsafdeling tegningssektion ; j.nr.:9021", "BEMAERKGEO": "OK brøndkarm 29,41 DVR90", "TIDLKNUDEN": null, "XKOORDINAT": "714143.19", "YKOORDINAT": "6183165.53", "OPRIND_KOO": "Landmåling ;  ; Afløbs planlægningsafdeling tegningssektion ; j.nr.:9021", "ID": "1142351" }, "geometry": { "type": "Point", "coordinates": [ 714143.193010319955647, 6183165.526929579675198 ] } },
{ "type": "Feature", "properties": { "KNUDENAVN": "6711000", "KNUDETYPE": "Udløb", "INTERPOLER": null, "BUNDKOTE": "22.49", "OPLANDSNAV": "HER_VÆREBRO", "EJERNAVN": "HOFOR Spildevand Herlev A/S", "DRIFTANSVA": "HOFOR A/S", "STATUS": "I brug/drift", "KATEGORIAF": "Hovedledning", "TYPEAFLOEB": "Regnvand", "TILLADTILS": "Ingen høring", "BEMAERKNIN": "\n(auto) Vejnavn : V/Sorts¥Vej", "DATOETABLE": "1992-01-01", "DATOHISTOR": null, "STATUSDATO": null, "LOKALITETS": null, "OPRIND_BUN": "Landmåling ;  ; Ukendt ; j.nr.:DAS5--5-0", "BEMAERKGEO": "Fiktiv Mike Urban diam", "TIDLKNUDEN": null, "XKOORDINAT": "715164.69", "YKOORDINAT": "6183411.07", "OPRIND_KOO": "Skønnet ; 11-MAR-10 ; Ukendt ; j.nr.:DAS5-20100311-1-0", "ID": "1139212" }, "geometry": { "type": "Point", "coordinates": [ 715164.689999999944121, 6183411.070000000298023 ] } },
{ "type": "Feature", "properties": { "KNUDENAVN": "ALU0600", "KNUDETYPE": "Udløb", "INTERPOLER": null, "BUNDKOTE": "0", "OPLANDSNAV": "RØD_ AL", "EJERNAVN": "HOFOR Spildevand Rødovre A/S", "DRIFTANSVA": "HOFOR A/S", "STATUS": "I brug/drift", "KATEGORIAF": "Hovedledning", "TYPEAFLOEB": "Regnvand", "TILLADTILS": "Ejeren skal høres (betinget af udløbstilladelse)", "BEMAERKNIN": "\n(auto) Vejnavn : HARRESTRUP Å", "DATOETABLE": "1955-01-01", "DATOHISTOR": null, "STATUSDATO": "1955-01-01", "LOKALITETS": null, "OPRIND_BUN": null, "BEMAERKGEO": null, "TIDLKNUDEN": null, "XKOORDINAT": "715444.13", "YKOORDINAT": "6178852.34", "OPRIND_KOO": null, "ID": "1105519" }, "geometry": { "type": "Point", "coordinates": [ 715444.13, 6178852.339999999850988 ] } },
{ "type": "Feature", "properties": { "KNUDENAVN": "ALU8950", "KNUDETYPE": "Udløb", "INTERPOLER": null, "BUNDKOTE": "9.58", "OPLANDSNAV": "RØD_ AL", "EJERNAVN": "Vejvæsen", "DRIFTANSVA": "Vejvæsen", "STATUS": "I brug/drift", "KATEGORIAF": "Hovedledning", "TYPEAFLOEB": "Regnvand", "TILLADTILS": "Ejeren skal høres (betinget af udløbstilladelse)", "BEMAERKNIN": null, "DATOETABLE": null, "DATOHISTOR": null, "STATUSDATO": null, "LOKALITETS": null, "OPRIND_BUN": null, "BEMAERKGEO": "Terrænkote taget fra digital højdemodel", "TIDLKNUDEN": null, "XKOORDINAT": "715434.7", "YKOORDINAT": "6178861.35", "OPRIND_KOO": null, "ID": "1122111" }, "geometry": { "type": "Point", "coordinates": [ 715434.699999999953434, 6178861.349999999627471 ] } },
{ "type": "Feature", "properties": { "KNUDENAVN": "B21117R", "KNUDETYPE": "Udløb", "INTERPOLER": null, "BUNDKOTE": "23.3", "OPLANDSNAV": "BAL_Uoplyst", "EJERNAVN": "Novafos Spildevand Ballerup A/S", "DRIFTANSVA": "Uoplyst", "STATUS": "I brug/drift", "KATEGORIAF": "Hovedledning", "TYPEAFLOEB": "Regnvand", "TILLADTILS": "Ingen høring", "BEMAERKNIN": "NOVAFOS", "DATOETABLE": "1976-01-01", "DATOHISTOR": null, "STATUSDATO": null, "LOKALITETS": null, "OPRIND_BUN": null, "BEMAERKGEO": "Fiktiv Mike Urban diam", "TIDLKNUDEN": null, "XKOORDINAT": "713852.44", "YKOORDINAT": "6181925.5", "OPRIND_KOO": null, "ID": "1142800" }, "geometry": { "type": "Point", "coordinates": [ 713852.439999999944121, 6181925.5 ] } },
{ "type": "Feature", "properties": { "KNUDENAVN": "E78000R", "KNUDETYPE": "Udløb", "INTERPOLER": "N", "BUNDKOTE": "18.3", "OPLANDSNAV": null, "EJERNAVN": "Novafos Spildevand Ballerup A/S", "DRIFTANSVA": "Novafos Spildevand Ballerup A/S", "STATUS": "I brug/drift", "KATEGORIAF": "Hovedledning", "TYPEAFLOEB": "Regnvand", "TILLADTILS": "Ingen mulighed for tilslutning", "BEMAERKNIN": "KS 043-2017", "DATOETABLE": null, "DATOHISTOR": null, "STATUSDATO": null, "LOKALITETS": null, "OPRIND_BUN": "Digitaliseret fra kort ;  ;  ; j.nr.:9030", "BEMAERKGEO": null, "TIDLKNUDEN": null, "XKOORDINAT": "713064.07", "YKOORDINAT": "6184415.52", "OPRIND_KOO": "Digitaliseret fra kort ;  ;  ; j.nr.:9030", "ID": "1350957" }, "geometry": { "type": "Point", "coordinates": [ 713064.069999999948777, 6184415.519999999552965 ] } }
]
}
